{
  "type": "FeatureCollection",
  "crs": {
    "type": "name",
    "properties": {
      "name": "urn:ogc:def:crs:EPSG::32645"
    }
  },
  "features": [
    {
      "type": "Feature",
      "id": 1,
      "geometry": {
        "type": "Point",
        "coordinates": [
          2605201.531,
          256320.247
        ]
      },
      "properties": {
        "Pakhar-A 115.13 Ha Boundary Pillars": 1,
        "_srcEntity": "survey-point"
      }
    },
    {
      "type": "Feature",
      "id": 2,
      "geometry": {
        "type": "Point",
        "coordinates": [
          2605250.66,
          256329.539
        ]
      },
      "properties": {
        "Pakhar-A 115.13 Ha Boundary Pillars": 2,
        "_srcEntity": "survey-point"
      }
    },
    {
      "type": "Feature",
      "id": 3,
      "geometry": {
        "type": "Point",
        "coordinates": [
          2605279.989,
          256335.087
        ]
      },
      "properties": {
        "Pakhar-A 115.13 Ha Boundary Pillars": 3,
        "_srcEntity": "survey-point"
      }
    },
    {
      "type": "Feature",
      "id": 4,
      "geometry": {
        "type": "Point",
        "coordinates": [
          2605326.528,
          256316.809
        ]
      },
      "properties": {
        "Pakhar-A 115.13 Ha Boundary Pillars": 4,
        "_srcEntity": "survey-point"
      }
    },
    {
      "type": "Feature",
      "id": 5,
      "geometry": {
        "type": "Point",
        "coordinates": [
          2605373.068,
          256298.532
        ]
      },
      "properties": {
        "Pakhar-A 115.13 Ha Boundary Pillars": 5,
        "_srcEntity": "survey-point"
      }
    },
    {
      "type": "Feature",
      "id": 6,
      "geometry": {
        "type": "Point",
        "coordinates": [
          2605419.608,
          256280.254
        ]
      },
      "properties": {
        "Pakhar-A 115.13 Ha Boundary Pillars": 6,
        "_srcEntity": "survey-point"
      }
    },
    {
      "type": "Feature",
      "id": 7,
      "geometry": {
        "type": "Point",
        "coordinates": [
          2605466.147,
          256261.976
        ]
      },
      "properties": {
        "Pakhar-A 115.13 Ha Boundary Pillars": 7,
        "_srcEntity": "survey-point"
      }
    },
    {
      "type": "Feature",
      "id": 8,
      "geometry": {
        "type": "Point",
        "coordinates": [
          2605512.687,
          256243.699
        ]
      },
      "properties": {
        "Pakhar-A 115.13 Ha Boundary Pillars": 8,
        "_srcEntity": "survey-point"
      }
    },
    {
      "type": "Feature",
      "id": 9,
      "geometry": {
        "type": "Point",
        "coordinates": [
          2605559.226,
          256225.421
        ]
      },
      "properties": {
        "Pakhar-A 115.13 Ha Boundary Pillars": 9,
        "_srcEntity": "survey-point"
      }
    },
    {
      "type": "Feature",
      "id": 10,
      "geometry": {
        "type": "Point",
        "coordinates": [
          2605605.766,
          256207.143
        ]
      },
      "properties": {
        "Pakhar-A 115.13 Ha Boundary Pillars": 10,
        "_srcEntity": "survey-point"
      }
    },
    {
      "type": "Feature",
      "id": 11,
      "geometry": {
        "type": "Point",
        "coordinates": [
          2605652.305,
          256188.866
        ]
      },
      "properties": {
        "Pakhar-A 115.13 Ha Boundary Pillars": 11,
        "_srcEntity": "survey-point"
      }
    },
    {
      "type": "Feature",
      "id": 12,
      "geometry": {
        "type": "Point",
        "coordinates": [
          2605698.872,
          256170.658
        ]
      },
      "properties": {
        "Pakhar-A 115.13 Ha Boundary Pillars": 12,
        "_srcEntity": "survey-point"
      }
    },
    {
      "type": "Feature",
      "id": 13,
      "geometry": {
        "type": "Point",
        "coordinates": [
          2605745.799,
          256153.398
        ]
      },
      "properties": {
        "Pakhar-A 115.13 Ha Boundary Pillars": 13,
        "_srcEntity": "survey-point"
      }
    },
    {
      "type": "Feature",
      "id": 14,
      "geometry": {
        "type": "Point",
        "coordinates": [
          2605792.725,
          256136.138
        ]
      },
      "properties": {
        "Pakhar-A 115.13 Ha Boundary Pillars": 14,
        "_srcEntity": "survey-point"
      }
    },
    {
      "type": "Feature",
      "id": 15,
      "geometry": {
        "type": "Point",
        "coordinates": [
          2605833.071,
          256121.299
        ]
      },
      "properties": {
        "Pakhar-A 115.13 Ha Boundary Pillars": 15,
        "_srcEntity": "survey-point"
      }
    },
    {
      "type": "Feature",
      "id": 16,
      "geometry": {
        "type": "Point",
        "coordinates": [
          2605874.134,
          256149.827
        ]
      },
      "properties": {
        "Pakhar-A 115.13 Ha Boundary Pillars": 16,
        "_srcEntity": "survey-point"
      }
    },
    {
      "type": "Feature",
      "id": 17,
      "geometry": {
        "type": "Point",
        "coordinates": [
          2605915.197,
          256178.355
        ]
      },
      "properties": {
        "Pakhar-A 115.13 Ha Boundary Pillars": 17,
        "_srcEntity": "survey-point"
      }
    },
    {
      "type": "Feature",
      "id": 18,
      "geometry": {
        "type": "Point",
        "coordinates": [
          2605956.259,
          256206.883
        ]
      },
      "properties": {
        "Pakhar-A 115.13 Ha Boundary Pillars": 18,
        "_srcEntity": "survey-point"
      }
    },
    {
      "type": "Feature",
      "id": 19,
      "geometry": {
        "type": "Point",
        "coordinates": [
          2605997.032,
          256235.825
        ]
      },
      "properties": {
        "Pakhar-A 115.13 Ha Boundary Pillars": 19,
        "_srcEntity": "survey-point"
      }
    },
    {
      "type": "Feature",
      "id": 20,
      "geometry": {
        "type": "Point",
        "coordinates": [
          2606037.034,
          256265.822
        ]
      },
      "properties": {
        "Pakhar-A 115.13 Ha Boundary Pillars": 20,
        "_srcEntity": "survey-point"
      }
    },
    {
      "type": "Feature",
      "id": 21,
      "geometry": {
        "type": "Point",
        "coordinates": [
          2606077.035,
          256295.82
        ]
      },
      "properties": {
        "Pakhar-A 115.13 Ha Boundary Pillars": 21,
        "_srcEntity": "survey-point"
      }
    },
    {
      "type": "Feature",
      "id": 22,
      "geometry": {
        "type": "Point",
        "coordinates": [
          2606117.037,
          256325.817
        ]
      },
      "properties": {
        "Pakhar-A 115.13 Ha Boundary Pillars": 22,
        "_srcEntity": "survey-point"
      }
    },
    {
      "type": "Feature",
      "id": 23,
      "geometry": {
        "type": "Point",
        "coordinates": [
          2606157.039,
          256355.814
        ]
      },
      "properties": {
        "Pakhar-A 115.13 Ha Boundary Pillars": 23,
        "_srcEntity": "survey-point"
      }
    },
    {
      "type": "Feature",
      "id": 24,
      "geometry": {
        "type": "Point",
        "coordinates": [
          2606197.041,
          256385.812
        ]
      },
      "properties": {
        "Pakhar-A 115.13 Ha Boundary Pillars": 24,
        "_srcEntity": "survey-point"
      }
    },
    {
      "type": "Feature",
      "id": 25,
      "geometry": {
        "type": "Point",
        "coordinates": [
          2606237.043,
          256415.809
        ]
      },
      "properties": {
        "Pakhar-A 115.13 Ha Boundary Pillars": 25,
        "_srcEntity": "survey-point"
      }
    },
    {
      "type": "Feature",
      "id": 26,
      "geometry": {
        "type": "Point",
        "coordinates": [
          2606277.045,
          256445.807
        ]
      },
      "properties": {
        "Pakhar-A 115.13 Ha Boundary Pillars": 26,
        "_srcEntity": "survey-point"
      }
    },
    {
      "type": "Feature",
      "id": 27,
      "geometry": {
        "type": "Point",
        "coordinates": [
          2606286.423,
          256452.839
        ]
      },
      "properties": {
        "Pakhar-A 115.13 Ha Boundary Pillars": 27,
        "_srcEntity": "survey-point"
      }
    },
    {
      "type": "Feature",
      "id": 28,
      "geometry": {
        "type": "Point",
        "coordinates": [
          2606274.145,
          256450.344
        ]
      },
      "properties": {
        "Pakhar-A 115.13 Ha Boundary Pillars": 28,
        "_srcEntity": "survey-point"
      }
    },
    {
      "type": "Feature",
      "id": 29,
      "geometry": {
        "type": "Point",
        "coordinates": [
          2606274.069,
          256458.121
        ]
      },
      "properties": {
        "Pakhar-A 115.13 Ha Boundary Pillars": 29,
        "_srcEntity": "survey-point"
      }
    },
    {
      "type": "Feature",
      "id": 30,
      "geometry": {
        "type": "Point",
        "coordinates": [
          2606283.471,
          256457.159
        ]
      },
      "properties": {
        "Pakhar-A 115.13 Ha Boundary Pillars": 30,
        "_srcEntity": "survey-point"
      }
    },
    {
      "type": "Feature",
      "id": 31,
      "geometry": {
        "type": "Point",
        "coordinates": [
          2606286.809,
          256465.673
        ]
      },
      "properties": {
        "Pakhar-A 115.13 Ha Boundary Pillars": 31,
        "_srcEntity": "survey-point"
      }
    },
    {
      "type": "Feature",
      "id": 32,
      "geometry": {
        "type": "Point",
        "coordinates": [
          2606272.286,
          256470.196
        ]
      },
      "properties": {
        "Pakhar-A 115.13 Ha Boundary Pillars": 32,
        "_srcEntity": "survey-point"
      }
    },
    {
      "type": "Feature",
      "id": 33,
      "geometry": {
        "type": "Point",
        "coordinates": [
          2606274.049,
          256478.295
        ]
      },
      "properties": {
        "Pakhar-A 115.13 Ha Boundary Pillars": 33,
        "_srcEntity": "survey-point"
      }
    },
    {
      "type": "Feature",
      "id": 34,
      "geometry": {
        "type": "Point",
        "coordinates": [
          2606246.937,
          256485.136
        ]
      },
      "properties": {
        "Pakhar-A 115.13 Ha Boundary Pillars": 34,
        "_srcEntity": "survey-point"
      }
    },
    {
      "type": "Feature",
      "id": 35,
      "geometry": {
        "type": "Point",
        "coordinates": [
          2606215.468,
          256478.146
        ]
      },
      "properties": {
        "Pakhar-A 115.13 Ha Boundary Pillars": 35,
        "_srcEntity": "survey-point"
      }
    },
    {
      "type": "Feature",
      "id": 36,
      "geometry": {
        "type": "Point",
        "coordinates": [
          2606214.498,
          256488.874
        ]
      },
      "properties": {
        "Pakhar-A 115.13 Ha Boundary Pillars": 36,
        "_srcEntity": "survey-point"
      }
    },
    {
      "type": "Feature",
      "id": 37,
      "geometry": {
        "type": "Point",
        "coordinates": [
          2606205.098,
          256489.738
        ]
      },
      "properties": {
        "Pakhar-A 115.13 Ha Boundary Pillars": 37,
        "_srcEntity": "survey-point"
      }
    },
    {
      "type": "Feature",
      "id": 38,
      "geometry": {
        "type": "Point",
        "coordinates": [
          2606188.069,
          256483.232
        ]
      },
      "properties": {
        "Pakhar-A 115.13 Ha Boundary Pillars": 38,
        "_srcEntity": "survey-point"
      }
    },
    {
      "type": "Feature",
      "id": 39,
      "geometry": {
        "type": "Point",
        "coordinates": [
          2606186.808,
          256486.079
        ]
      },
      "properties": {
        "Pakhar-A 115.13 Ha Boundary Pillars": 39,
        "_srcEntity": "survey-point"
      }
    },
    {
      "type": "Feature",
      "id": 40,
      "geometry": {
        "type": "Point",
        "coordinates": [
          2606202.748,
          256493.266
        ]
      },
      "properties": {
        "Pakhar-A 115.13 Ha Boundary Pillars": 40,
        "_srcEntity": "survey-point"
      }
    },
    {
      "type": "Feature",
      "id": 41,
      "geometry": {
        "type": "Point",
        "coordinates": [
          2606208.755,
          256494.952
        ]
      },
      "properties": {
        "Pakhar-A 115.13 Ha Boundary Pillars": 41,
        "_srcEntity": "survey-point"
      }
    },
    {
      "type": "Feature",
      "id": 42,
      "geometry": {
        "type": "Point",
        "coordinates": [
          2606249.307,
          256494.952
        ]
      },
      "properties": {
        "Pakhar-A 115.13 Ha Boundary Pillars": 42,
        "_srcEntity": "survey-point"
      }
    },
    {
      "type": "Feature",
      "id": 43,
      "geometry": {
        "type": "Point",
        "coordinates": [
          2606270.058,
          256489.993
        ]
      },
      "properties": {
        "Pakhar-A 115.13 Ha Boundary Pillars": 43,
        "_srcEntity": "survey-point"
      }
    },
    {
      "type": "Feature",
      "id": 44,
      "geometry": {
        "type": "Point",
        "coordinates": [
          2606289.88,
          256493.434
        ]
      },
      "properties": {
        "Pakhar-A 115.13 Ha Boundary Pillars": 44,
        "_srcEntity": "survey-point"
      }
    },
    {
      "type": "Feature",
      "id": 45,
      "geometry": {
        "type": "Point",
        "coordinates": [
          2606293.201,
          256484.01
        ]
      },
      "properties": {
        "Pakhar-A 115.13 Ha Boundary Pillars": 45,
        "_srcEntity": "survey-point"
      }
    },
    {
      "type": "Feature",
      "id": 46,
      "geometry": {
        "type": "Point",
        "coordinates": [
          2606295.431,
          256483.075
        ]
      },
      "properties": {
        "Pakhar-A 115.13 Ha Boundary Pillars": 46,
        "_srcEntity": "survey-point"
      }
    },
    {
      "type": "Feature",
      "id": 47,
      "geometry": {
        "type": "Point",
        "coordinates": [
          2606344.929,
          256490.143
        ]
      },
      "properties": {
        "Pakhar-A 115.13 Ha Boundary Pillars": 47,
        "_srcEntity": "survey-point"
      }
    },
    {
      "type": "Feature",
      "id": 48,
      "geometry": {
        "type": "Point",
        "coordinates": [
          2606348.302,
          256490.705
        ]
      },
      "properties": {
        "Pakhar-A 115.13 Ha Boundary Pillars": 48,
        "_srcEntity": "survey-point"
      }
    },
    {
      "type": "Feature",
      "id": 49,
      "geometry": {
        "type": "Point",
        "coordinates": [
          2606387.379,
          256521.898
        ]
      },
      "properties": {
        "Pakhar-A 115.13 Ha Boundary Pillars": 49,
        "_srcEntity": "survey-point"
      }
    },
    {
      "type": "Feature",
      "id": 50,
      "geometry": {
        "type": "Point",
        "coordinates": [
          2606426.456,
          256553.091
        ]
      },
      "properties": {
        "Pakhar-A 115.13 Ha Boundary Pillars": 50,
        "_srcEntity": "survey-point"
      }
    },
    {
      "type": "Feature",
      "id": 51,
      "geometry": {
        "type": "Point",
        "coordinates": [
          2606465.532,
          256584.284
        ]
      },
      "properties": {
        "Pakhar-A 115.13 Ha Boundary Pillars": 51,
        "_srcEntity": "survey-point"
      }
    },
    {
      "type": "Feature",
      "id": 52,
      "geometry": {
        "type": "Point",
        "coordinates": [
          2606504.609,
          256615.478
        ]
      },
      "properties": {
        "Pakhar-A 115.13 Ha Boundary Pillars": 52,
        "_srcEntity": "survey-point"
      }
    },
    {
      "type": "Feature",
      "id": 53,
      "geometry": {
        "type": "Point",
        "coordinates": [
          2606520.629,
          256628.266
        ]
      },
      "properties": {
        "Pakhar-A 115.13 Ha Boundary Pillars": 53,
        "_srcEntity": "survey-point"
      }
    },
    {
      "type": "Feature",
      "id": 54,
      "geometry": {
        "type": "Point",
        "coordinates": [
          2606507.228,
          256649.182
        ]
      },
      "properties": {
        "Pakhar-A 115.13 Ha Boundary Pillars": 54,
        "_srcEntity": "survey-point"
      }
    },
    {
      "type": "Feature",
      "id": 55,
      "geometry": {
        "type": "Point",
        "coordinates": [
          2606495.23,
          256644.835
        ]
      },
      "properties": {
        "Pakhar-A 115.13 Ha Boundary Pillars": 55,
        "_srcEntity": "survey-point"
      }
    },
    {
      "type": "Feature",
      "id": 56,
      "geometry": {
        "type": "Point",
        "coordinates": [
          2606491.976,
          256655.013
        ]
      },
      "properties": {
        "Pakhar-A 115.13 Ha Boundary Pillars": 56,
        "_srcEntity": "survey-point"
      }
    },
    {
      "type": "Feature",
      "id": 57,
      "geometry": {
        "type": "Point",
        "coordinates": [
          2606498.795,
          256669.856
        ]
      },
      "properties": {
        "Pakhar-A 115.13 Ha Boundary Pillars": 57,
        "_srcEntity": "survey-point"
      }
    },
    {
      "type": "Feature",
      "id": 58,
      "geometry": {
        "type": "Point",
        "coordinates": [
          2606527.459,
          256658.423
        ]
      },
      "properties": {
        "Pakhar-A 115.13 Ha Boundary Pillars": 58,
        "_srcEntity": "survey-point"
      }
    },
    {
      "type": "Feature",
      "id": 59,
      "geometry": {
        "type": "Point",
        "coordinates": [
          2606538.85,
          256661.529
        ]
      },
      "properties": {
        "Pakhar-A 115.13 Ha Boundary Pillars": 59,
        "_srcEntity": "survey-point"
      }
    },
    {
      "type": "Feature",
      "id": 60,
      "geometry": {
        "type": "Point",
        "coordinates": [
          2606531.84,
          256680.371
        ]
      },
      "properties": {
        "Pakhar-A 115.13 Ha Boundary Pillars": 60,
        "_srcEntity": "survey-point"
      }
    },
    {
      "type": "Feature",
      "id": 61,
      "geometry": {
        "type": "Point",
        "coordinates": [
          2606519.402,
          256693.135
        ]
      },
      "properties": {
        "Pakhar-A 115.13 Ha Boundary Pillars": 61,
        "_srcEntity": "survey-point"
      }
    },
    {
      "type": "Feature",
      "id": 62,
      "geometry": {
        "type": "Point",
        "coordinates": [
          2606504.074,
          256720.209
        ]
      },
      "properties": {
        "Pakhar-A 115.13 Ha Boundary Pillars": 62,
        "_srcEntity": "survey-point"
      }
    },
    {
      "type": "Feature",
      "id": 63,
      "geometry": {
        "type": "Point",
        "coordinates": [
          2606514.312,
          256722.859
        ]
      },
      "properties": {
        "Pakhar-A 115.13 Ha Boundary Pillars": 63,
        "_srcEntity": "survey-point"
      }
    },
    {
      "type": "Feature",
      "id": 64,
      "geometry": {
        "type": "Point",
        "coordinates": [
          2606526.018,
          256701.506
        ]
      },
      "properties": {
        "Pakhar-A 115.13 Ha Boundary Pillars": 64,
        "_srcEntity": "survey-point"
      }
    },
    {
      "type": "Feature",
      "id": 65,
      "geometry": {
        "type": "Point",
        "coordinates": [
          2606563.236,
          256660.088
        ]
      },
      "properties": {
        "Pakhar-A 115.13 Ha Boundary Pillars": 65,
        "_srcEntity": "survey-point"
      }
    },
    {
      "type": "Feature",
      "id": 66,
      "geometry": {
        "type": "Point",
        "coordinates": [
          2606586.814,
          256684.98
        ]
      },
      "properties": {
        "Pakhar-A 115.13 Ha Boundary Pillars": 66,
        "_srcEntity": "survey-point"
      }
    },
    {
      "type": "Feature",
      "id": 67,
      "geometry": {
        "type": "Point",
        "coordinates": [
          2606550.431,
          256719.277
        ]
      },
      "properties": {
        "Pakhar-A 115.13 Ha Boundary Pillars": 67,
        "_srcEntity": "survey-point"
      }
    },
    {
      "type": "Feature",
      "id": 68,
      "geometry": {
        "type": "Point",
        "coordinates": [
          2606542.443,
          256727.702
        ]
      },
      "properties": {
        "Pakhar-A 115.13 Ha Boundary Pillars": 68,
        "_srcEntity": "survey-point"
      }
    },
    {
      "type": "Feature",
      "id": 69,
      "geometry": {
        "type": "Point",
        "coordinates": [
          2606552.015,
          256748.229
        ]
      },
      "properties": {
        "Pakhar-A 115.13 Ha Boundary Pillars": 69,
        "_srcEntity": "survey-point"
      }
    },
    {
      "type": "Feature",
      "id": 70,
      "geometry": {
        "type": "Point",
        "coordinates": [
          2606585.344,
          256713.151
        ]
      },
      "properties": {
        "Pakhar-A 115.13 Ha Boundary Pillars": 70,
        "_srcEntity": "survey-point"
      }
    },
    {
      "type": "Feature",
      "id": 71,
      "geometry": {
        "type": "Point",
        "coordinates": [
          2606631.153,
          256693.114
        ]
      },
      "properties": {
        "Pakhar-A 115.13 Ha Boundary Pillars": 71,
        "_srcEntity": "survey-point"
      }
    },
    {
      "type": "Feature",
      "id": 72,
      "geometry": {
        "type": "Point",
        "coordinates": [
          2606644.656,
          256685.213
        ]
      },
      "properties": {
        "Pakhar-A 115.13 Ha Boundary Pillars": 72,
        "_srcEntity": "survey-point"
      }
    },
    {
      "type": "Feature",
      "id": 73,
      "geometry": {
        "type": "Point",
        "coordinates": [
          2606683.397,
          256686.149
        ]
      },
      "properties": {
        "Pakhar-A 115.13 Ha Boundary Pillars": 73,
        "_srcEntity": "survey-point"
      }
    },
    {
      "type": "Feature",
      "id": 74,
      "geometry": {
        "type": "Point",
        "coordinates": [
          2606695.852,
          256691.898
        ]
      },
      "properties": {
        "Pakhar-A 115.13 Ha Boundary Pillars": 74,
        "_srcEntity": "survey-point"
      }
    },
    {
      "type": "Feature",
      "id": 75,
      "geometry": {
        "type": "Point",
        "coordinates": [
          2606704.855,
          256686.36
        ]
      },
      "properties": {
        "Pakhar-A 115.13 Ha Boundary Pillars": 75,
        "_srcEntity": "survey-point"
      }
    },
    {
      "type": "Feature",
      "id": 76,
      "geometry": {
        "type": "Point",
        "coordinates": [
          2606752.284,
          256702.188
        ]
      },
      "properties": {
        "Pakhar-A 115.13 Ha Boundary Pillars": 76,
        "_srcEntity": "survey-point"
      }
    },
    {
      "type": "Feature",
      "id": 77,
      "geometry": {
        "type": "Point",
        "coordinates": [
          2606799.713,
          256718.016
        ]
      },
      "properties": {
        "Pakhar-A 115.13 Ha Boundary Pillars": 77,
        "_srcEntity": "survey-point"
      }
    },
    {
      "type": "Feature",
      "id": 78,
      "geometry": {
        "type": "Point",
        "coordinates": [
          2606847.141,
          256733.844
        ]
      },
      "properties": {
        "Pakhar-A 115.13 Ha Boundary Pillars": 78,
        "_srcEntity": "survey-point"
      }
    },
    {
      "type": "Feature",
      "id": 79,
      "geometry": {
        "type": "Point",
        "coordinates": [
          2606894.57,
          256749.672
        ]
      },
      "properties": {
        "Pakhar-A 115.13 Ha Boundary Pillars": 79,
        "_srcEntity": "survey-point"
      }
    },
    {
      "type": "Feature",
      "id": 80,
      "geometry": {
        "type": "Point",
        "coordinates": [
          2606941.999,
          256765.5
        ]
      },
      "properties": {
        "Pakhar-A 115.13 Ha Boundary Pillars": 80,
        "_srcEntity": "survey-point"
      }
    },
    {
      "type": "Feature",
      "id": 81,
      "geometry": {
        "type": "Point",
        "coordinates": [
          2606989.427,
          256781.328
        ]
      },
      "properties": {
        "Pakhar-A 115.13 Ha Boundary Pillars": 81,
        "_srcEntity": "survey-point"
      }
    },
    {
      "type": "Feature",
      "id": 82,
      "geometry": {
        "type": "Point",
        "coordinates": [
          2607036.856,
          256797.156
        ]
      },
      "properties": {
        "Pakhar-A 115.13 Ha Boundary Pillars": 82,
        "_srcEntity": "survey-point"
      }
    },
    {
      "type": "Feature",
      "id": 83,
      "geometry": {
        "type": "Point",
        "coordinates": [
          2607084.284,
          256812.984
        ]
      },
      "properties": {
        "Pakhar-A 115.13 Ha Boundary Pillars": 83,
        "_srcEntity": "survey-point"
      }
    },
    {
      "type": "Feature",
      "id": 84,
      "geometry": {
        "type": "Point",
        "coordinates": [
          2607131.713,
          256828.812
        ]
      },
      "properties": {
        "Pakhar-A 115.13 Ha Boundary Pillars": 84,
        "_srcEntity": "survey-point"
      }
    },
    {
      "type": "Feature",
      "id": 85,
      "geometry": {
        "type": "Point",
        "coordinates": [
          2607179.142,
          256844.64
        ]
      },
      "properties": {
        "Pakhar-A 115.13 Ha Boundary Pillars": 85,
        "_srcEntity": "survey-point"
      }
    },
    {
      "type": "Feature",
      "id": 86,
      "geometry": {
        "type": "Point",
        "coordinates": [
          2607226.57,
          256860.468
        ]
      },
      "properties": {
        "Pakhar-A 115.13 Ha Boundary Pillars": 86,
        "_srcEntity": "survey-point"
      }
    },
    {
      "type": "Feature",
      "id": 87,
      "geometry": {
        "type": "Point",
        "coordinates": [
          2607273.999,
          256876.296
        ]
      },
      "properties": {
        "Pakhar-A 115.13 Ha Boundary Pillars": 87,
        "_srcEntity": "survey-point"
      }
    },
    {
      "type": "Feature",
      "id": 88,
      "geometry": {
        "type": "Point",
        "coordinates": [
          2607328.657,
          256894.536
        ]
      },
      "properties": {
        "Pakhar-A 115.13 Ha Boundary Pillars": 88,
        "_srcEntity": "survey-point"
      }
    },
    {
      "type": "Feature",
      "id": 89,
      "geometry": {
        "type": "Point",
        "coordinates": [
          2607293.116,
          256929.705
        ]
      },
      "properties": {
        "Pakhar-A 115.13 Ha Boundary Pillars": 89,
        "_srcEntity": "survey-point"
      }
    },
    {
      "type": "Feature",
      "id": 90,
      "geometry": {
        "type": "Point",
        "coordinates": [
          2607257.575,
          256964.874
        ]
      },
      "properties": {
        "Pakhar-A 115.13 Ha Boundary Pillars": 90,
        "_srcEntity": "survey-point"
      }
    },
    {
      "type": "Feature",
      "id": 91,
      "geometry": {
        "type": "Point",
        "coordinates": [
          2607222.034,
          257000.043
        ]
      },
      "properties": {
        "Pakhar-A 115.13 Ha Boundary Pillars": 91,
        "_srcEntity": "survey-point"
      }
    },
    {
      "type": "Feature",
      "id": 92,
      "geometry": {
        "type": "Point",
        "coordinates": [
          2607215.873,
          257006.14
        ]
      },
      "properties": {
        "Pakhar-A 115.13 Ha Boundary Pillars": 92,
        "_srcEntity": "survey-point"
      }
    },
    {
      "type": "Feature",
      "id": 93,
      "geometry": {
        "type": "Point",
        "coordinates": [
          2607169.322,
          257024.388
        ]
      },
      "properties": {
        "Pakhar-A 115.13 Ha Boundary Pillars": 93,
        "_srcEntity": "survey-point"
      }
    },
    {
      "type": "Feature",
      "id": 94,
      "geometry": {
        "type": "Point",
        "coordinates": [
          2607122.771,
          257042.637
        ]
      },
      "properties": {
        "Pakhar-A 115.13 Ha Boundary Pillars": 94,
        "_srcEntity": "survey-point"
      }
    },
    {
      "type": "Feature",
      "id": 95,
      "geometry": {
        "type": "Point",
        "coordinates": [
          2607076.22,
          257060.886
        ]
      },
      "properties": {
        "Pakhar-A 115.13 Ha Boundary Pillars": 95,
        "_srcEntity": "survey-point"
      }
    },
    {
      "type": "Feature",
      "id": 96,
      "geometry": {
        "type": "Point",
        "coordinates": [
          2607029.669,
          257079.134
        ]
      },
      "properties": {
        "Pakhar-A 115.13 Ha Boundary Pillars": 96,
        "_srcEntity": "survey-point"
      }
    },
    {
      "type": "Feature",
      "id": 97,
      "geometry": {
        "type": "Point",
        "coordinates": [
          2606983.118,
          257097.383
        ]
      },
      "properties": {
        "Pakhar-A 115.13 Ha Boundary Pillars": 97,
        "_srcEntity": "survey-point"
      }
    },
    {
      "type": "Feature",
      "id": 98,
      "geometry": {
        "type": "Point",
        "coordinates": [
          2606936.567,
          257115.631
        ]
      },
      "properties": {
        "Pakhar-A 115.13 Ha Boundary Pillars": 98,
        "_srcEntity": "survey-point"
      }
    },
    {
      "type": "Feature",
      "id": 99,
      "geometry": {
        "type": "Point",
        "coordinates": [
          2606890.016,
          257133.88
        ]
      },
      "properties": {
        "Pakhar-A 115.13 Ha Boundary Pillars": 99,
        "_srcEntity": "survey-point"
      }
    },
    {
      "type": "Feature",
      "id": 100,
      "geometry": {
        "type": "Point",
        "coordinates": [
          2606843.465,
          257152.128
        ]
      },
      "properties": {
        "Pakhar-A 115.13 Ha Boundary Pillars": 100,
        "_srcEntity": "survey-point"
      }
    },
    {
      "type": "Feature",
      "id": 101,
      "geometry": {
        "type": "Point",
        "coordinates": [
          2606796.914,
          257170.377
        ]
      },
      "properties": {
        "Pakhar-A 115.13 Ha Boundary Pillars": 101,
        "_srcEntity": "survey-point"
      }
    },
    {
      "type": "Feature",
      "id": 102,
      "geometry": {
        "type": "Point",
        "coordinates": [
          2606750.363,
          257188.626
        ]
      },
      "properties": {
        "Pakhar-A 115.13 Ha Boundary Pillars": 102,
        "_srcEntity": "survey-point"
      }
    },
    {
      "type": "Feature",
      "id": 103,
      "geometry": {
        "type": "Point",
        "coordinates": [
          2606718.448,
          257201.137
        ]
      },
      "properties": {
        "Pakhar-A 115.13 Ha Boundary Pillars": 103,
        "_srcEntity": "survey-point"
      }
    },
    {
      "type": "Feature",
      "id": 104,
      "geometry": {
        "type": "Point",
        "coordinates": [
          2606687.174,
          257162.125
        ]
      },
      "properties": {
        "Pakhar-A 115.13 Ha Boundary Pillars": 104,
        "_srcEntity": "survey-point"
      }
    },
    {
      "type": "Feature",
      "id": 105,
      "geometry": {
        "type": "Point",
        "coordinates": [
          2606655.899,
          257123.114
        ]
      },
      "properties": {
        "Pakhar-A 115.13 Ha Boundary Pillars": 105,
        "_srcEntity": "survey-point"
      }
    },
    {
      "type": "Feature",
      "id": 106,
      "geometry": {
        "type": "Point",
        "coordinates": [
          2606624.228,
          257084.423
        ]
      },
      "properties": {
        "Pakhar-A 115.13 Ha Boundary Pillars": 106,
        "_srcEntity": "survey-point"
      }
    },
    {
      "type": "Feature",
      "id": 107,
      "geometry": {
        "type": "Point",
        "coordinates": [
          2606592.216,
          257046.014
        ]
      },
      "properties": {
        "Pakhar-A 115.13 Ha Boundary Pillars": 107,
        "_srcEntity": "survey-point"
      }
    },
    {
      "type": "Feature",
      "id": 108,
      "geometry": {
        "type": "Point",
        "coordinates": [
          2606560.204,
          257007.606
        ]
      },
      "properties": {
        "Pakhar-A 115.13 Ha Boundary Pillars": 108,
        "_srcEntity": "survey-point"
      }
    },
    {
      "type": "Feature",
      "id": 109,
      "geometry": {
        "type": "Point",
        "coordinates": [
          2606547.337,
          256992.168
        ]
      },
      "properties": {
        "Pakhar-A 115.13 Ha Boundary Pillars": 109,
        "_srcEntity": "survey-point"
      }
    },
    {
      "type": "Feature",
      "id": 110,
      "geometry": {
        "type": "Point",
        "coordinates": [
          2606504.578,
          256966.251
        ]
      },
      "properties": {
        "Pakhar-A 115.13 Ha Boundary Pillars": 110,
        "_srcEntity": "survey-point"
      }
    },
    {
      "type": "Feature",
      "id": 111,
      "geometry": {
        "type": "Point",
        "coordinates": [
          2606461.819,
          256940.334
        ]
      },
      "properties": {
        "Pakhar-A 115.13 Ha Boundary Pillars": 111,
        "_srcEntity": "survey-point"
      }
    },
    {
      "type": "Feature",
      "id": 112,
      "geometry": {
        "type": "Point",
        "coordinates": [
          2606419.061,
          256914.417
        ]
      },
      "properties": {
        "Pakhar-A 115.13 Ha Boundary Pillars": 112,
        "_srcEntity": "survey-point"
      }
    },
    {
      "type": "Feature",
      "id": 113,
      "geometry": {
        "type": "Point",
        "coordinates": [
          2606375.282,
          256887.883
        ]
      },
      "properties": {
        "Pakhar-A 115.13 Ha Boundary Pillars": 113,
        "_srcEntity": "survey-point"
      }
    },
    {
      "type": "Feature",
      "id": 114,
      "geometry": {
        "type": "Point",
        "coordinates": [
          2606325.847,
          256880.387
        ]
      },
      "properties": {
        "Pakhar-A 115.13 Ha Boundary Pillars": 114,
        "_srcEntity": "survey-point"
      }
    },
    {
      "type": "Feature",
      "id": 115,
      "geometry": {
        "type": "Point",
        "coordinates": [
          2606281.657,
          256873.688
        ]
      },
      "properties": {
        "Pakhar-A 115.13 Ha Boundary Pillars": 115,
        "_srcEntity": "survey-point"
      }
    },
    {
      "type": "Feature",
      "id": 116,
      "geometry": {
        "type": "Point",
        "coordinates": [
          2606251.198,
          256916.274
        ]
      },
      "properties": {
        "Pakhar-A 115.13 Ha Boundary Pillars": 116,
        "_srcEntity": "survey-point"
      }
    },
    {
      "type": "Feature",
      "id": 117,
      "geometry": {
        "type": "Point",
        "coordinates": [
          2606212.897,
          256884.133
        ]
      },
      "properties": {
        "Pakhar-A 115.13 Ha Boundary Pillars": 117,
        "_srcEntity": "survey-point"
      }
    },
    {
      "type": "Feature",
      "id": 118,
      "geometry": {
        "type": "Point",
        "coordinates": [
          2606174.596,
          256851.992
        ]
      },
      "properties": {
        "Pakhar-A 115.13 Ha Boundary Pillars": 118,
        "_srcEntity": "survey-point"
      }
    },
    {
      "type": "Feature",
      "id": 119,
      "geometry": {
        "type": "Point",
        "coordinates": [
          2606136.363,
          256819.77
        ]
      },
      "properties": {
        "Pakhar-A 115.13 Ha Boundary Pillars": 119,
        "_srcEntity": "survey-point"
      }
    },
    {
      "type": "Feature",
      "id": 120,
      "geometry": {
        "type": "Point",
        "coordinates": [
          2606098.176,
          256787.494
        ]
      },
      "properties": {
        "Pakhar-A 115.13 Ha Boundary Pillars": 120,
        "_srcEntity": "survey-point"
      }
    },
    {
      "type": "Feature",
      "id": 121,
      "geometry": {
        "type": "Point",
        "coordinates": [
          2606068.425,
          256762.349
        ]
      },
      "properties": {
        "Pakhar-A 115.13 Ha Boundary Pillars": 121,
        "_srcEntity": "survey-point"
      }
    },
    {
      "type": "Feature",
      "id": 122,
      "geometry": {
        "type": "Point",
        "coordinates": [
          2606048.387,
          256785.811
        ]
      },
      "properties": {
        "Pakhar-A 115.13 Ha Boundary Pillars": 122,
        "_srcEntity": "survey-point"
      }
    },
    {
      "type": "Feature",
      "id": 123,
      "geometry": {
        "type": "Point",
        "coordinates": [
          2606009.449,
          256754.446
        ]
      },
      "properties": {
        "Pakhar-A 115.13 Ha Boundary Pillars": 123,
        "_srcEntity": "survey-point"
      }
    },
    {
      "type": "Feature",
      "id": 124,
      "geometry": {
        "type": "Point",
        "coordinates": [
          2605970.502,
          256723.09
        ]
      },
      "properties": {
        "Pakhar-A 115.13 Ha Boundary Pillars": 124,
        "_srcEntity": "survey-point"
      }
    },
    {
      "type": "Feature",
      "id": 125,
      "geometry": {
        "type": "Point",
        "coordinates": [
          2605948.689,
          256702.409
        ]
      },
      "properties": {
        "Pakhar-A 115.13 Ha Boundary Pillars": 125,
        "_srcEntity": "survey-point"
      }
    },
    {
      "type": "Feature",
      "id": 126,
      "geometry": {
        "type": "Point",
        "coordinates": [
          2605962.084,
          256650.821
        ]
      },
      "properties": {
        "Pakhar-A 115.13 Ha Boundary Pillars": 126,
        "_srcEntity": "survey-point"
      }
    },
    {
      "type": "Feature",
      "id": 127,
      "geometry": {
        "type": "Point",
        "coordinates": [
          2605936.236,
          256640.292
        ]
      },
      "properties": {
        "Pakhar-A 115.13 Ha Boundary Pillars": 127,
        "_srcEntity": "survey-point"
      }
    },
    {
      "type": "Feature",
      "id": 128,
      "geometry": {
        "type": "Point",
        "coordinates": [
          2605937.372,
          256631.415
        ]
      },
      "properties": {
        "Pakhar-A 115.13 Ha Boundary Pillars": 128,
        "_srcEntity": "survey-point"
      }
    },
    {
      "type": "Feature",
      "id": 129,
      "geometry": {
        "type": "Point",
        "coordinates": [
          2605914.468,
          256622.283
        ]
      },
      "properties": {
        "Pakhar-A 115.13 Ha Boundary Pillars": 129,
        "_srcEntity": "survey-point"
      }
    },
    {
      "type": "Feature",
      "id": 130,
      "geometry": {
        "type": "Point",
        "coordinates": [
          2605929.188,
          256600.36
        ]
      },
      "properties": {
        "Pakhar-A 115.13 Ha Boundary Pillars": 130,
        "_srcEntity": "survey-point"
      }
    },
    {
      "type": "Feature",
      "id": 131,
      "geometry": {
        "type": "Point",
        "coordinates": [
          2605945.132,
          256600.36
        ]
      },
      "properties": {
        "Pakhar-A 115.13 Ha Boundary Pillars": 131,
        "_srcEntity": "survey-point"
      }
    },
    {
      "type": "Feature",
      "id": 132,
      "geometry": {
        "type": "Point",
        "coordinates": [
          2605959.701,
          256552.211
        ]
      },
      "properties": {
        "Pakhar-A 115.13 Ha Boundary Pillars": 132,
        "_srcEntity": "survey-point"
      }
    },
    {
      "type": "Feature",
      "id": 133,
      "geometry": {
        "type": "Point",
        "coordinates": [
          2605978.078,
          256505.711
        ]
      },
      "properties": {
        "Pakhar-A 115.13 Ha Boundary Pillars": 133,
        "_srcEntity": "survey-point"
      }
    },
    {
      "type": "Feature",
      "id": 134,
      "geometry": {
        "type": "Point",
        "coordinates": [
          2605988.468,
          256479.312
        ]
      },
      "properties": {
        "Pakhar-A 115.13 Ha Boundary Pillars": 134,
        "_srcEntity": "survey-point"
      }
    },
    {
      "type": "Feature",
      "id": 135,
      "geometry": {
        "type": "Point",
        "coordinates": [
          2605964.741,
          256457.807
        ]
      },
      "properties": {
        "Pakhar-A 115.13 Ha Boundary Pillars": 135,
        "_srcEntity": "survey-point"
      }
    },
    {
      "type": "Feature",
      "id": 136,
      "geometry": {
        "type": "Point",
        "coordinates": [
          2605958.892,
          256464.673
        ]
      },
      "properties": {
        "Pakhar-A 115.13 Ha Boundary Pillars": 136,
        "_srcEntity": "survey-point"
      }
    },
    {
      "type": "Feature",
      "id": 137,
      "geometry": {
        "type": "Point",
        "coordinates": [
          2605956.128,
          256478.701
        ]
      },
      "properties": {
        "Pakhar-A 115.13 Ha Boundary Pillars": 137,
        "_srcEntity": "survey-point"
      }
    },
    {
      "type": "Feature",
      "id": 138,
      "geometry": {
        "type": "Point",
        "coordinates": [
          2605929.564,
          256521.061
        ]
      },
      "properties": {
        "Pakhar-A 115.13 Ha Boundary Pillars": 138,
        "_srcEntity": "survey-point"
      }
    },
    {
      "type": "Feature",
      "id": 139,
      "geometry": {
        "type": "Point",
        "coordinates": [
          2605922.597,
          256528.24
        ]
      },
      "properties": {
        "Pakhar-A 115.13 Ha Boundary Pillars": 139,
        "_srcEntity": "survey-point"
      }
    },
    {
      "type": "Feature",
      "id": 140,
      "geometry": {
        "type": "Point",
        "coordinates": [
          2605917.66,
          256525.496
        ]
      },
      "properties": {
        "Pakhar-A 115.13 Ha Boundary Pillars": 140,
        "_srcEntity": "survey-point"
      }
    },
    {
      "type": "Feature",
      "id": 141,
      "geometry": {
        "type": "Point",
        "coordinates": [
          2605901.062,
          256560.405
        ]
      },
      "properties": {
        "Pakhar-A 115.13 Ha Boundary Pillars": 141,
        "_srcEntity": "survey-point"
      }
    },
    {
      "type": "Feature",
      "id": 142,
      "geometry": {
        "type": "Point",
        "coordinates": [
          2605901.159,
          256610.405
        ]
      },
      "properties": {
        "Pakhar-A 115.13 Ha Boundary Pillars": 142,
        "_srcEntity": "survey-point"
      }
    },
    {
      "type": "Feature",
      "id": 143,
      "geometry": {
        "type": "Point",
        "coordinates": [
          2605900.667,
          256622.199
        ]
      },
      "properties": {
        "Pakhar-A 115.13 Ha Boundary Pillars": 143,
        "_srcEntity": "survey-point"
      }
    },
    {
      "type": "Feature",
      "id": 144,
      "geometry": {
        "type": "Point",
        "coordinates": [
          2605889.546,
          256641.703
        ]
      },
      "properties": {
        "Pakhar-A 115.13 Ha Boundary Pillars": 144,
        "_srcEntity": "survey-point"
      }
    },
    {
      "type": "Feature",
      "id": 145,
      "geometry": {
        "type": "Point",
        "coordinates": [
          2605877.096,
          256672.196
        ]
      },
      "properties": {
        "Pakhar-A 115.13 Ha Boundary Pillars": 145,
        "_srcEntity": "survey-point"
      }
    },
    {
      "type": "Feature",
      "id": 146,
      "geometry": {
        "type": "Point",
        "coordinates": [
          2605864.794,
          256669.501
        ]
      },
      "properties": {
        "Pakhar-A 115.13 Ha Boundary Pillars": 146,
        "_srcEntity": "survey-point"
      }
    },
    {
      "type": "Feature",
      "id": 147,
      "geometry": {
        "type": "Point",
        "coordinates": [
          2605878.327,
          256621.367
        ]
      },
      "properties": {
        "Pakhar-A 115.13 Ha Boundary Pillars": 147,
        "_srcEntity": "survey-point"
      }
    },
    {
      "type": "Feature",
      "id": 148,
      "geometry": {
        "type": "Point",
        "coordinates": [
          2605885.635,
          256571.904
        ]
      },
      "properties": {
        "Pakhar-A 115.13 Ha Boundary Pillars": 148,
        "_srcEntity": "survey-point"
      }
    },
    {
      "type": "Feature",
      "id": 149,
      "geometry": {
        "type": "Point",
        "coordinates": [
          2605887.785,
          256555.007
        ]
      },
      "properties": {
        "Pakhar-A 115.13 Ha Boundary Pillars": 149,
        "_srcEntity": "survey-point"
      }
    },
    {
      "type": "Feature",
      "id": 150,
      "geometry": {
        "type": "Point",
        "coordinates": [
          2605894.262,
          256543.666
        ]
      },
      "properties": {
        "Pakhar-A 115.13 Ha Boundary Pillars": 150,
        "_srcEntity": "survey-point"
      }
    },
    {
      "type": "Feature",
      "id": 151,
      "geometry": {
        "type": "Point",
        "coordinates": [
          2605893.271,
          256541.425
        ]
      },
      "properties": {
        "Pakhar-A 115.13 Ha Boundary Pillars": 151,
        "_srcEntity": "survey-point"
      }
    },
    {
      "type": "Feature",
      "id": 152,
      "geometry": {
        "type": "Point",
        "coordinates": [
          2605916.595,
          256497.199
        ]
      },
      "properties": {
        "Pakhar-A 115.13 Ha Boundary Pillars": 152,
        "_srcEntity": "survey-point"
      }
    },
    {
      "type": "Feature",
      "id": 153,
      "geometry": {
        "type": "Point",
        "coordinates": [
          2605919.863,
          256490.567
        ]
      },
      "properties": {
        "Pakhar-A 115.13 Ha Boundary Pillars": 153,
        "_srcEntity": "survey-point"
      }
    },
    {
      "type": "Feature",
      "id": 154,
      "geometry": {
        "type": "Point",
        "coordinates": [
          2605919.446,
          256479.95
        ]
      },
      "properties": {
        "Pakhar-A 115.13 Ha Boundary Pillars": 154,
        "_srcEntity": "survey-point"
      }
    },
    {
      "type": "Feature",
      "id": 155,
      "geometry": {
        "type": "Point",
        "coordinates": [
          2605910.487,
          256471.707
        ]
      },
      "properties": {
        "Pakhar-A 115.13 Ha Boundary Pillars": 155,
        "_srcEntity": "survey-point"
      }
    },
    {
      "type": "Feature",
      "id": 156,
      "geometry": {
        "type": "Point",
        "coordinates": [
          2605889.608,
          256517.139
        ]
      },
      "properties": {
        "Pakhar-A 115.13 Ha Boundary Pillars": 156,
        "_srcEntity": "survey-point"
      }
    },
    {
      "type": "Feature",
      "id": 157,
      "geometry": {
        "type": "Point",
        "coordinates": [
          2605881.604,
          256529.563
        ]
      },
      "properties": {
        "Pakhar-A 115.13 Ha Boundary Pillars": 157,
        "_srcEntity": "survey-point"
      }
    },
    {
      "type": "Feature",
      "id": 158,
      "geometry": {
        "type": "Point",
        "coordinates": [
          2605868.729,
          256523.734
        ]
      },
      "properties": {
        "Pakhar-A 115.13 Ha Boundary Pillars": 158,
        "_srcEntity": "survey-point"
      }
    },
    {
      "type": "Feature",
      "id": 159,
      "geometry": {
        "type": "Point",
        "coordinates": [
          2605860.559,
          256527.5
        ]
      },
      "properties": {
        "Pakhar-A 115.13 Ha Boundary Pillars": 159,
        "_srcEntity": "survey-point"
      }
    },
    {
      "type": "Feature",
      "id": 160,
      "geometry": {
        "type": "Point",
        "coordinates": [
          2605855.432,
          256536.165
        ]
      },
      "properties": {
        "Pakhar-A 115.13 Ha Boundary Pillars": 160,
        "_srcEntity": "survey-point"
      }
    },
    {
      "type": "Feature",
      "id": 161,
      "geometry": {
        "type": "Point",
        "coordinates": [
          2605866.947,
          256544.779
        ]
      },
      "properties": {
        "Pakhar-A 115.13 Ha Boundary Pillars": 161,
        "_srcEntity": "survey-point"
      }
    },
    {
      "type": "Feature",
      "id": 162,
      "geometry": {
        "type": "Point",
        "coordinates": [
          2605878.14,
          256559.44
        ]
      },
      "properties": {
        "Pakhar-A 115.13 Ha Boundary Pillars": 162,
        "_srcEntity": "survey-point"
      }
    },
    {
      "type": "Feature",
      "id": 163,
      "geometry": {
        "type": "Point",
        "coordinates": [
          2605872.717,
          256578.747
        ]
      },
      "properties": {
        "Pakhar-A 115.13 Ha Boundary Pillars": 163,
        "_srcEntity": "survey-point"
      }
    },
    {
      "type": "Feature",
      "id": 164,
      "geometry": {
        "type": "Point",
        "coordinates": [
          2605858.627,
          256586.063
        ]
      },
      "properties": {
        "Pakhar-A 115.13 Ha Boundary Pillars": 164,
        "_srcEntity": "survey-point"
      }
    },
    {
      "type": "Feature",
      "id": 165,
      "geometry": {
        "type": "Point",
        "coordinates": [
          2605845.544,
          256617.017
        ]
      },
      "properties": {
        "Pakhar-A 115.13 Ha Boundary Pillars": 165,
        "_srcEntity": "survey-point"
      }
    },
    {
      "type": "Feature",
      "id": 166,
      "geometry": {
        "type": "Point",
        "coordinates": [
          2605846.114,
          256635.074
        ]
      },
      "properties": {
        "Pakhar-A 115.13 Ha Boundary Pillars": 166,
        "_srcEntity": "survey-point"
      }
    },
    {
      "type": "Feature",
      "id": 167,
      "geometry": {
        "type": "Point",
        "coordinates": [
          2605835.605,
          256660.604
        ]
      },
      "properties": {
        "Pakhar-A 115.13 Ha Boundary Pillars": 167,
        "_srcEntity": "survey-point"
      }
    },
    {
      "type": "Feature",
      "id": 168,
      "geometry": {
        "type": "Point",
        "coordinates": [
          2605827.486,
          256668.418
        ]
      },
      "properties": {
        "Pakhar-A 115.13 Ha Boundary Pillars": 168,
        "_srcEntity": "survey-point"
      }
    },
    {
      "type": "Feature",
      "id": 169,
      "geometry": {
        "type": "Point",
        "coordinates": [
          2605822.563,
          256683.359
        ]
      },
      "properties": {
        "Pakhar-A 115.13 Ha Boundary Pillars": 169,
        "_srcEntity": "survey-point"
      }
    },
    {
      "type": "Feature",
      "id": 170,
      "geometry": {
        "type": "Point",
        "coordinates": [
          2605772.569,
          256684.091
        ]
      },
      "properties": {
        "Pakhar-A 115.13 Ha Boundary Pillars": 170,
        "_srcEntity": "survey-point"
      }
    },
    {
      "type": "Feature",
      "id": 171,
      "geometry": {
        "type": "Point",
        "coordinates": [
          2605722.717,
          256687.944
        ]
      },
      "properties": {
        "Pakhar-A 115.13 Ha Boundary Pillars": 171,
        "_srcEntity": "survey-point"
      }
    },
    {
      "type": "Feature",
      "id": 172,
      "geometry": {
        "type": "Point",
        "coordinates": [
          2605701.003,
          256690.16
        ]
      },
      "properties": {
        "Pakhar-A 115.13 Ha Boundary Pillars": 172,
        "_srcEntity": "survey-point"
      }
    },
    {
      "type": "Feature",
      "id": 173,
      "geometry": {
        "type": "Point",
        "coordinates": [
          2605661.482,
          256720.789
        ]
      },
      "properties": {
        "Pakhar-A 115.13 Ha Boundary Pillars": 173,
        "_srcEntity": "survey-point"
      }
    },
    {
      "type": "Feature",
      "id": 174,
      "geometry": {
        "type": "Point",
        "coordinates": [
          2605625.585,
          256746.516
        ]
      },
      "properties": {
        "Pakhar-A 115.13 Ha Boundary Pillars": 174,
        "_srcEntity": "survey-point"
      }
    },
    {
      "type": "Feature",
      "id": 175,
      "geometry": {
        "type": "Point",
        "coordinates": [
          2605586.322,
          256715.557
        ]
      },
      "properties": {
        "Pakhar-A 115.13 Ha Boundary Pillars": 175,
        "_srcEntity": "survey-point"
      }
    },
    {
      "type": "Feature",
      "id": 176,
      "geometry": {
        "type": "Point",
        "coordinates": [
          2605546.884,
          256684.822
        ]
      },
      "properties": {
        "Pakhar-A 115.13 Ha Boundary Pillars": 176,
        "_srcEntity": "survey-point"
      }
    },
    {
      "type": "Feature",
      "id": 177,
      "geometry": {
        "type": "Point",
        "coordinates": [
          2605507.184,
          256654.426
        ]
      },
      "properties": {
        "Pakhar-A 115.13 Ha Boundary Pillars": 177,
        "_srcEntity": "survey-point"
      }
    },
    {
      "type": "Feature",
      "id": 178,
      "geometry": {
        "type": "Point",
        "coordinates": [
          2605469.008,
          256622.137
        ]
      },
      "properties": {
        "Pakhar-A 115.13 Ha Boundary Pillars": 178,
        "_srcEntity": "survey-point"
      }
    },
    {
      "type": "Feature",
      "id": 179,
      "geometry": {
        "type": "Point",
        "coordinates": [
          2605433.127,
          256588.29
        ]
      },
      "properties": {
        "Pakhar-A 115.13 Ha Boundary Pillars": 179,
        "_srcEntity": "survey-point"
      }
    },
    {
      "type": "Feature",
      "id": 180,
      "geometry": {
        "type": "Point",
        "coordinates": [
          2605414.702,
          256571.441
        ]
      },
      "properties": {
        "Pakhar-A 115.13 Ha Boundary Pillars": 180,
        "_srcEntity": "survey-point"
      }
    },
    {
      "type": "Feature",
      "id": 181,
      "geometry": {
        "type": "Point",
        "coordinates": [
          2605372.432,
          256544.734
        ]
      },
      "properties": {
        "Pakhar-A 115.13 Ha Boundary Pillars": 181,
        "_srcEntity": "survey-point"
      }
    },
    {
      "type": "Feature",
      "id": 182,
      "geometry": {
        "type": "Point",
        "coordinates": [
          2605338.218,
          256522.53
        ]
      },
      "properties": {
        "Pakhar-A 115.13 Ha Boundary Pillars": 182,
        "_srcEntity": "survey-point"
      }
    },
    {
      "type": "Feature",
      "id": 183,
      "geometry": {
        "type": "Point",
        "coordinates": [
          2605315.762,
          256477.856
        ]
      },
      "properties": {
        "Pakhar-A 115.13 Ha Boundary Pillars": 183,
        "_srcEntity": "survey-point"
      }
    },
    {
      "type": "Feature",
      "id": 184,
      "geometry": {
        "type": "Point",
        "coordinates": [
          2605293.582,
          256433.045
        ]
      },
      "properties": {
        "Pakhar-A 115.13 Ha Boundary Pillars": 184,
        "_srcEntity": "survey-point"
      }
    },
    {
      "type": "Feature",
      "id": 185,
      "geometry": {
        "type": "Point",
        "coordinates": [
          2605281.99,
          256409.485
        ]
      },
      "properties": {
        "Pakhar-A 115.13 Ha Boundary Pillars": 185,
        "_srcEntity": "survey-point"
      }
    },
    {
      "type": "Feature",
      "id": 186,
      "geometry": {
        "type": "Point",
        "coordinates": [
          2605250.104,
          256370.971
        ]
      },
      "properties": {
        "Pakhar-A 115.13 Ha Boundary Pillars": 186,
        "_srcEntity": "survey-point"
      }
    },
    {
      "type": "Feature",
      "id": 187,
      "geometry": {
        "type": "Point",
        "coordinates": [
          2605218.128,
          256332.532
        ]
      },
      "properties": {
        "Pakhar-A 115.13 Ha Boundary Pillars": 187,
        "_srcEntity": "survey-point"
      }
    },
    {
      "type": "Feature",
      "id": 188,
      "geometry": {
        "type": "Point",
        "coordinates": [
          2605212.922,
          256326.562
        ]
      },
      "properties": {
        "Pakhar-A 115.13 Ha Boundary Pillars": 188,
        "_srcEntity": "survey-point"
      }
    }
  ]
}
