<?xml version="1.0" encoding="UTF-8"?>
<gpx version="1.1" creator="BhuNex GIS Converter" xmlns="http://www.topografix.com/GPX/1/1">
<metadata><name>Pakhar-A 115.13 Ha Boundary Pillars.csv</name></metadata>
<wpt lat="2.19719737" lon="105.59634894"><name>1</name></wpt>
<wpt lat="2.19727157" lon="105.59676861"><name>2</name></wpt>
<wpt lat="2.19731588" lon="105.59701915"><name>3</name></wpt>
<wpt lat="2.19715406" lon="105.59741372"><name>4</name></wpt>
<wpt lat="2.19699225" lon="105.59780830"><name>5</name></wpt>
<wpt lat="2.19683043" lon="105.59820287"><name>6</name></wpt>
<wpt lat="2.19666861" lon="105.59859744"><name>7</name></wpt>
<wpt lat="2.19650680" lon="105.59899201"><name>8</name></wpt>
<wpt lat="2.19634498" lon="105.59938658"><name>9</name></wpt>
<wpt lat="2.19618316" lon="105.59978115"><name>10</name></wpt>
<wpt lat="2.19602135" lon="105.60017572"><name>11</name></wpt>
<wpt lat="2.19586013" lon="105.60057052"><name>12</name></wpt>
<wpt lat="2.19570700" lon="105.60096850"><name>13</name></wpt>
<wpt lat="2.19555387" lon="105.60136647"><name>14</name></wpt>
<wpt lat="2.19542222" lon="105.60170864"><name>15</name></wpt>
<wpt lat="2.19566219" lon="105.60206168"><name>16</name></wpt>
<wpt lat="2.19590217" lon="105.60241473"><name>17</name></wpt>
<wpt lat="2.19614214" lon="105.60276776"><name>18</name></wpt>
<wpt lat="2.19638570" lon="105.60311838"><name>19</name></wpt>
<wpt lat="2.19663838" lon="105.60346255"><name>20</name></wpt>
<wpt lat="2.19689107" lon="105.60380670"><name>21</name></wpt>
<wpt lat="2.19714375" lon="105.60415087"><name>22</name></wpt>
<wpt lat="2.19739643" lon="105.60449503"><name>23</name></wpt>
<wpt lat="2.19764911" lon="105.60483919"><name>24</name></wpt>
<wpt lat="2.19790179" lon="105.60518336"><name>25</name></wpt>
<wpt lat="2.19815447" lon="105.60552752"><name>26</name></wpt>
<wpt lat="2.19821370" lon="105.60560820"><name>27</name></wpt>
<wpt lat="2.19819368" lon="105.60550331"><name>28</name></wpt>
<wpt lat="2.19826034" lon="105.60550352"><name>29</name></wpt>
<wpt lat="2.19825106" lon="105.60558353"><name>30</name></wpt>
<wpt lat="2.19832366" lon="105.60561291"><name>31</name></wpt>
<wpt lat="2.19836404" lon="105.60548965"><name>32</name></wpt>
<wpt lat="2.19843326" lon="105.60550557"><name>33</name></wpt>
<wpt lat="2.19849490" lon="105.60527530"><name>34</name></wpt>
<wpt lat="2.19843847" lon="105.60500638"><name>35</name></wpt>
<wpt lat="2.19853053" lon="105.60499930"><name>36</name></wpt>
<wpt lat="2.19853898" lon="105.60491929"><name>37</name></wpt>
<wpt lat="2.19848510" lon="105.60477347"><name>38</name></wpt>
<wpt lat="2.19850964" lon="105.60476304"><name>39</name></wpt>
<wpt lat="2.19856948" lon="105.60489966"><name>40</name></wpt>
<wpt lat="2.19858326" lon="105.60495103"><name>41</name></wpt>
<wpt lat="2.19857877" lon="105.60529658"><name>42</name></wpt>
<wpt lat="2.19853396" lon="105.60547285"><name>43</name></wpt>
<wpt lat="2.19856126" lon="105.60564213"><name>44</name></wpt>
<wpt lat="2.19848012" lon="105.60566939"><name>45</name></wpt>
<wpt lat="2.19847186" lon="105.60568829"><name>46</name></wpt>
<wpt lat="2.19852695" lon="105.60611085"><name>47</name></wpt>
<wpt lat="2.19853140" lon="105.60613965"><name>48</name></wpt>
<wpt lat="2.19879442" lon="105.60647606"><name>49</name></wpt>
<wpt lat="2.19905744" lon="105.60681247"><name>50</name></wpt>
<wpt lat="2.19932047" lon="105.60714888"><name>51</name></wpt>
<wpt lat="2.19958350" lon="105.60748529"><name>52</name></wpt>
<wpt lat="2.19969133" lon="105.60762320"><name>53</name></wpt>
<wpt lat="2.19987208" lon="105.60751132"><name>54</name></wpt>
<wpt lat="2.19983616" lon="105.60740861"><name>55</name></wpt>
<wpt lat="2.19992375" lon="105.60738200"><name>56</name></wpt>
<wpt lat="2.20005021" lon="105.60744174"><name>57</name></wpt>
<wpt lat="2.19994904" lon="105.60768473"><name>58</name></wpt>
<wpt lat="2.19997440" lon="105.60778213"><name>59</name></wpt>
<wpt lat="2.20013667" lon="105.60772448"><name>60</name></wpt>
<wpt lat="2.20024745" lon="105.60761990"><name>61</name></wpt>
<wpt lat="2.20048120" lon="105.60749228"><name>62</name></wpt>
<wpt lat="2.20050278" lon="105.60757981"><name>63</name></wpt>
<wpt lat="2.20031847" lon="105.60767720"><name>64</name></wpt>
<wpt lat="2.19995935" lon="105.60798976"><name>65</name></wpt>
<wpt lat="2.20017008" lon="105.60819341"><name>66</name></wpt>
<wpt lat="2.20046807" lon="105.60788718"><name>67</name></wpt>
<wpt lat="2.20054117" lon="105.60782004"><name>68</name></wpt>
<wpt lat="2.20071604" lon="105.60790387"><name>69</name></wpt>
<wpt lat="2.20041169" lon="105.60818399"><name>70</name></wpt>
<wpt lat="2.20023488" lon="105.60857212"><name>71</name></wpt>
<wpt lat="2.20016566" lon="105.60868631"><name>72</name></wpt>
<wpt lat="2.20016939" lon="105.60901652"><name>73</name></wpt>
<wpt lat="2.20021728" lon="105.60912328"><name>74</name></wpt>
<wpt lat="2.20016881" lon="105.60919938"><name>75</name></wpt>
<wpt lat="2.20029921" lon="105.60960526"><name>76</name></wpt>
<wpt lat="2.20042961" lon="105.61001115"><name>77</name></wpt>
<wpt lat="2.20056001" lon="105.61041702"><name>78</name></wpt>
<wpt lat="2.20069040" lon="105.61082290"><name>79</name></wpt>
<wpt lat="2.20082080" lon="105.61122877"><name>80</name></wpt>
<wpt lat="2.20095119" lon="105.61163464"><name>81</name></wpt>
<wpt lat="2.20108159" lon="105.61204052"><name>82</name></wpt>
<wpt lat="2.20121198" lon="105.61244639"><name>83</name></wpt>
<wpt lat="2.20134238" lon="105.61285226"><name>84</name></wpt>
<wpt lat="2.20147277" lon="105.61325814"><name>85</name></wpt>
<wpt lat="2.20160316" lon="105.61366400"><name>86</name></wpt>
<wpt lat="2.20173355" lon="105.61406988"><name>87</name></wpt>
<wpt lat="2.20188381" lon="105.61453761"><name>88</name></wpt>
<wpt lat="2.20218917" lon="105.61423866"><name>89</name></wpt>
<wpt lat="2.20249454" lon="105.61393971"><name>90</name></wpt>
<wpt lat="2.20279991" lon="105.61364076"><name>91</name></wpt>
<wpt lat="2.20285285" lon="105.61358894"><name>92</name></wpt>
<wpt lat="2.20301442" lon="105.61319431"><name>93</name></wpt>
<wpt lat="2.20317600" lon="105.61279967"><name>94</name></wpt>
<wpt lat="2.20333757" lon="105.61240504"><name>95</name></wpt>
<wpt lat="2.20349914" lon="105.61201041"><name>96</name></wpt>
<wpt lat="2.20366072" lon="105.61161577"><name>97</name></wpt>
<wpt lat="2.20382230" lon="105.61122114"><name>98</name></wpt>
<wpt lat="2.20398388" lon="105.61082650"><name>99</name></wpt>
<wpt lat="2.20414545" lon="105.61043186"><name>100</name></wpt>
<wpt lat="2.20430703" lon="105.61003722"><name>101</name></wpt>
<wpt lat="2.20446861" lon="105.60964259"><name>102</name></wpt>
<wpt lat="2.20457939" lon="105.60937202"><name>103</name></wpt>
<wpt lat="2.20424850" lon="105.60910123"><name>104</name></wpt>
<wpt lat="2.20391762" lon="105.60883043"><name>105</name></wpt>
<wpt lat="2.20358952" lon="105.60855629"><name>106</name></wpt>
<wpt lat="2.20326387" lon="105.60827928"><name>107</name></wpt>
<wpt lat="2.20293824" lon="105.60800227"><name>108</name></wpt>
<wpt lat="2.20280735" lon="105.60789092"><name>109</name></wpt>
<wpt lat="2.20258996" lon="105.60752371"><name>110</name></wpt>
<wpt lat="2.20237258" lon="105.60715650"><name>111</name></wpt>
<wpt lat="2.20215519" lon="105.60678930"><name>112</name></wpt>
<wpt lat="2.20193262" lon="105.60641333"><name>113</name></wpt>
<wpt lat="2.20187386" lon="105.60599127"><name>114</name></wpt>
<wpt lat="2.20182135" lon="105.60561398"><name>115</name></wpt>
<wpt lat="2.20218974" lon="105.60535914"><name>116</name></wpt>
<wpt lat="2.20191851" lon="105.60502923"><name>117</name></wpt>
<wpt lat="2.20164727" lon="105.60469931"><name>118</name></wpt>
<wpt lat="2.20137534" lon="105.60436997"><name>119</name></wpt>
<wpt lat="2.20110293" lon="105.60404102"><name>120</name></wpt>
<wpt lat="2.20089071" lon="105.60378473"><name>121</name></wpt>
<wpt lat="2.20109403" lon="105.60361657"><name>122</name></wpt>
<wpt lat="2.20082951" lon="105.60328131"><name>123</name></wpt>
<wpt lat="2.20056508" lon="105.60294598"><name>124</name></wpt>
<wpt lat="2.20039023" lon="105.60275783"><name>125</name></wpt>
<wpt lat="2.19994658" lon="105.60286628"><name>126</name></wpt>
<wpt lat="2.19985920" lon="105.60264487"><name>127</name></wpt>
<wpt lat="2.19978299" lon="105.60265357"><name>128</name></wpt>
<wpt lat="2.19970725" lon="105.60245739"><name>129</name></wpt>
<wpt lat="2.19951771" lon="105.60258041"><name>130</name></wpt>
<wpt lat="2.19951595" lon="105.60271627"><name>131</name></wpt>
<wpt lat="2.19910164" lon="105.60283511"><name>132</name></wpt>
<wpt lat="2.19870104" lon="105.60298658"><name>133</name></wpt>
<wpt lat="2.19847362" lon="105.60307221"><name>134</name></wpt>
<wpt lat="2.19829192" lon="105.60286766"><name>135</name></wpt>
<wpt lat="2.19835142" lon="105.60281858"><name>136</name></wpt>
<wpt lat="2.19847196" lon="105.60279657"><name>137</name></wpt>
<wpt lat="2.19883798" lon="105.60257488"><name>138</name></wpt>
<wpt lat="2.19890029" lon="105.60251630"><name>139</name></wpt>
<wpt lat="2.19887732" lon="105.60247393"><name>140</name></wpt>
<wpt lat="2.19917837" lon="105.60233634"><name>141</name></wpt>
<wpt lat="2.19960692" lon="105.60234268"><name>142</name></wpt>
<wpt lat="2.19970806" lon="105.60233978"><name>143</name></wpt>
<wpt lat="2.19987647" lon="105.60224717"><name>144</name></wpt>
<wpt lat="2.20013921" lon="105.60214444"><name>145</name></wpt>
<wpt lat="2.20011748" lon="105.60203931"><name>146</name></wpt>
<wpt lat="2.19970341" lon="105.60214933"><name>147</name></wpt>
<wpt lat="2.19927864" lon="105.60220615"><name>148</name></wpt>
<wpt lat="2.19913357" lon="105.60222261"><name>149</name></wpt>
<wpt lat="2.19903565" lon="105.60227655"><name>150</name></wpt>
<wpt lat="2.19901655" lon="105.60226786"><name>151</name></wpt>
<wpt lat="2.19863489" lon="105.60246174"><name>152</name></wpt>
<wpt lat="2.19857769" lon="105.60248885"><name>153</name></wpt>
<wpt lat="2.19848673" lon="105.60248413"><name>154</name></wpt>
<wpt lat="2.19841707" lon="105.60240688"><name>155</name></wpt>
<wpt lat="2.19880880" lon="105.60223397"><name>156</name></wpt>
<wpt lat="2.19891617" lon="105.60216714"><name>157</name></wpt>
<wpt lat="2.19886764" lon="105.60205678"><name>158</name></wpt>
<wpt lat="2.19890082" lon="105.60198758"><name>159</name></wpt>
<wpt lat="2.19897566" lon="105.60194485"><name>160</name></wpt>
<wpt lat="2.19904822" lon="105.60204392"><name>161</name></wpt>
<wpt lat="2.19917264" lon="105.60214091"><name>162</name></wpt>
<wpt lat="2.19933872" lon="105.60209683"><name>163</name></wpt>
<wpt lat="2.19940299" lon="105.60197757"><name>164</name></wpt>
<wpt lat="2.19966976" lon="105.60186950"><name>165</name></wpt>
<wpt lat="2.19982446" lon="105.60187634"><name>166</name></wpt>
<wpt lat="2.20004445" lon="105.60178961"><name>167</name></wpt>
<wpt lat="2.20011233" lon="105.60172128"><name>168</name></wpt>
<wpt lat="2.20024094" lon="105.60168098"><name>169</name></wpt>
<wpt lat="2.20025276" lon="105.60125505"><name>170</name></wpt>
<wpt lat="2.20029131" lon="105.60083067"><name>171</name></wpt>
<wpt lat="2.20031271" lon="105.60064588"><name>172</name></wpt>
<wpt lat="2.20057962" lon="105.60031249"><name>173</name></wpt>
<wpt lat="2.20080412" lon="105.60000943"><name>174</name></wpt>
<wpt lat="2.20054311" lon="105.59967145"><name>175</name></wpt>
<wpt lat="2.20028404" lon="105.59933199"><name>176</name></wpt>
<wpt lat="2.20002791" lon="105.59899034"><name>177</name></wpt>
<wpt lat="2.19975538" lon="105.59866147"><name>178</name></wpt>
<wpt lat="2.19946924" lon="105.59835199"><name>179</name></wpt>
<wpt lat="2.19932686" lon="105.59819312"><name>180</name></wpt>
<wpt lat="2.19910263" lon="105.59782998"><name>181</name></wpt>
<wpt lat="2.19891610" lon="105.59753598"><name>182</name></wpt>
<wpt lat="2.19853566" lon="105.59733971"><name>183</name></wpt>
<wpt lat="2.19815402" lon="105.59714577"><name>184</name></wpt>
<wpt lat="2.19795336" lon="105.59704439"><name>185</name></wpt>
<wpt lat="2.19762677" lon="105.59676844"><name>186</name></wpt>
<wpt lat="2.19730083" lon="105.59649172"><name>187</name></wpt>
<wpt lat="2.19725024" lon="105.59644670"><name>188</name></wpt>
</gpx>
