<?xml version="1.0" encoding="UTF-8"?>
<osm version="0.6" generator="BhuNex GIS Converter">
<node id="-1" lat="2.1971974" lon="105.5963489" version="1"><tag k="Pakhar-A 115.13 Ha Boundary Pillars" v="1"/><tag k="layer_name" v="Pakhar-A 115.13 Ha Boundary Pillars.csv"/></node>
<node id="-2" lat="2.1972716" lon="105.5967686" version="1"><tag k="Pakhar-A 115.13 Ha Boundary Pillars" v="2"/><tag k="layer_name" v="Pakhar-A 115.13 Ha Boundary Pillars.csv"/></node>
<node id="-3" lat="2.1973159" lon="105.5970191" version="1"><tag k="Pakhar-A 115.13 Ha Boundary Pillars" v="3"/><tag k="layer_name" v="Pakhar-A 115.13 Ha Boundary Pillars.csv"/></node>
<node id="-4" lat="2.1971541" lon="105.5974137" version="1"><tag k="Pakhar-A 115.13 Ha Boundary Pillars" v="4"/><tag k="layer_name" v="Pakhar-A 115.13 Ha Boundary Pillars.csv"/></node>
<node id="-5" lat="2.1969923" lon="105.5978083" version="1"><tag k="Pakhar-A 115.13 Ha Boundary Pillars" v="5"/><tag k="layer_name" v="Pakhar-A 115.13 Ha Boundary Pillars.csv"/></node>
<node id="-6" lat="2.1968304" lon="105.5982029" version="1"><tag k="Pakhar-A 115.13 Ha Boundary Pillars" v="6"/><tag k="layer_name" v="Pakhar-A 115.13 Ha Boundary Pillars.csv"/></node>
<node id="-7" lat="2.1966686" lon="105.5985974" version="1"><tag k="Pakhar-A 115.13 Ha Boundary Pillars" v="7"/><tag k="layer_name" v="Pakhar-A 115.13 Ha Boundary Pillars.csv"/></node>
<node id="-8" lat="2.1965068" lon="105.5989920" version="1"><tag k="Pakhar-A 115.13 Ha Boundary Pillars" v="8"/><tag k="layer_name" v="Pakhar-A 115.13 Ha Boundary Pillars.csv"/></node>
<node id="-9" lat="2.1963450" lon="105.5993866" version="1"><tag k="Pakhar-A 115.13 Ha Boundary Pillars" v="9"/><tag k="layer_name" v="Pakhar-A 115.13 Ha Boundary Pillars.csv"/></node>
<node id="-10" lat="2.1961832" lon="105.5997811" version="1"><tag k="Pakhar-A 115.13 Ha Boundary Pillars" v="10"/><tag k="layer_name" v="Pakhar-A 115.13 Ha Boundary Pillars.csv"/></node>
<node id="-11" lat="2.1960214" lon="105.6001757" version="1"><tag k="Pakhar-A 115.13 Ha Boundary Pillars" v="11"/><tag k="layer_name" v="Pakhar-A 115.13 Ha Boundary Pillars.csv"/></node>
<node id="-12" lat="2.1958601" lon="105.6005705" version="1"><tag k="Pakhar-A 115.13 Ha Boundary Pillars" v="12"/><tag k="layer_name" v="Pakhar-A 115.13 Ha Boundary Pillars.csv"/></node>
<node id="-13" lat="2.1957070" lon="105.6009685" version="1"><tag k="Pakhar-A 115.13 Ha Boundary Pillars" v="13"/><tag k="layer_name" v="Pakhar-A 115.13 Ha Boundary Pillars.csv"/></node>
<node id="-14" lat="2.1955539" lon="105.6013665" version="1"><tag k="Pakhar-A 115.13 Ha Boundary Pillars" v="14"/><tag k="layer_name" v="Pakhar-A 115.13 Ha Boundary Pillars.csv"/></node>
<node id="-15" lat="2.1954222" lon="105.6017086" version="1"><tag k="Pakhar-A 115.13 Ha Boundary Pillars" v="15"/><tag k="layer_name" v="Pakhar-A 115.13 Ha Boundary Pillars.csv"/></node>
<node id="-16" lat="2.1956622" lon="105.6020617" version="1"><tag k="Pakhar-A 115.13 Ha Boundary Pillars" v="16"/><tag k="layer_name" v="Pakhar-A 115.13 Ha Boundary Pillars.csv"/></node>
<node id="-17" lat="2.1959022" lon="105.6024147" version="1"><tag k="Pakhar-A 115.13 Ha Boundary Pillars" v="17"/><tag k="layer_name" v="Pakhar-A 115.13 Ha Boundary Pillars.csv"/></node>
<node id="-18" lat="2.1961421" lon="105.6027678" version="1"><tag k="Pakhar-A 115.13 Ha Boundary Pillars" v="18"/><tag k="layer_name" v="Pakhar-A 115.13 Ha Boundary Pillars.csv"/></node>
<node id="-19" lat="2.1963857" lon="105.6031184" version="1"><tag k="Pakhar-A 115.13 Ha Boundary Pillars" v="19"/><tag k="layer_name" v="Pakhar-A 115.13 Ha Boundary Pillars.csv"/></node>
<node id="-20" lat="2.1966384" lon="105.6034626" version="1"><tag k="Pakhar-A 115.13 Ha Boundary Pillars" v="20"/><tag k="layer_name" v="Pakhar-A 115.13 Ha Boundary Pillars.csv"/></node>
<node id="-21" lat="2.1968911" lon="105.6038067" version="1"><tag k="Pakhar-A 115.13 Ha Boundary Pillars" v="21"/><tag k="layer_name" v="Pakhar-A 115.13 Ha Boundary Pillars.csv"/></node>
<node id="-22" lat="2.1971437" lon="105.6041509" version="1"><tag k="Pakhar-A 115.13 Ha Boundary Pillars" v="22"/><tag k="layer_name" v="Pakhar-A 115.13 Ha Boundary Pillars.csv"/></node>
<node id="-23" lat="2.1973964" lon="105.6044950" version="1"><tag k="Pakhar-A 115.13 Ha Boundary Pillars" v="23"/><tag k="layer_name" v="Pakhar-A 115.13 Ha Boundary Pillars.csv"/></node>
<node id="-24" lat="2.1976491" lon="105.6048392" version="1"><tag k="Pakhar-A 115.13 Ha Boundary Pillars" v="24"/><tag k="layer_name" v="Pakhar-A 115.13 Ha Boundary Pillars.csv"/></node>
<node id="-25" lat="2.1979018" lon="105.6051834" version="1"><tag k="Pakhar-A 115.13 Ha Boundary Pillars" v="25"/><tag k="layer_name" v="Pakhar-A 115.13 Ha Boundary Pillars.csv"/></node>
<node id="-26" lat="2.1981545" lon="105.6055275" version="1"><tag k="Pakhar-A 115.13 Ha Boundary Pillars" v="26"/><tag k="layer_name" v="Pakhar-A 115.13 Ha Boundary Pillars.csv"/></node>
<node id="-27" lat="2.1982137" lon="105.6056082" version="1"><tag k="Pakhar-A 115.13 Ha Boundary Pillars" v="27"/><tag k="layer_name" v="Pakhar-A 115.13 Ha Boundary Pillars.csv"/></node>
<node id="-28" lat="2.1981937" lon="105.6055033" version="1"><tag k="Pakhar-A 115.13 Ha Boundary Pillars" v="28"/><tag k="layer_name" v="Pakhar-A 115.13 Ha Boundary Pillars.csv"/></node>
<node id="-29" lat="2.1982603" lon="105.6055035" version="1"><tag k="Pakhar-A 115.13 Ha Boundary Pillars" v="29"/><tag k="layer_name" v="Pakhar-A 115.13 Ha Boundary Pillars.csv"/></node>
<node id="-30" lat="2.1982511" lon="105.6055835" version="1"><tag k="Pakhar-A 115.13 Ha Boundary Pillars" v="30"/><tag k="layer_name" v="Pakhar-A 115.13 Ha Boundary Pillars.csv"/></node>
<node id="-31" lat="2.1983237" lon="105.6056129" version="1"><tag k="Pakhar-A 115.13 Ha Boundary Pillars" v="31"/><tag k="layer_name" v="Pakhar-A 115.13 Ha Boundary Pillars.csv"/></node>
<node id="-32" lat="2.1983640" lon="105.6054896" version="1"><tag k="Pakhar-A 115.13 Ha Boundary Pillars" v="32"/><tag k="layer_name" v="Pakhar-A 115.13 Ha Boundary Pillars.csv"/></node>
<node id="-33" lat="2.1984333" lon="105.6055056" version="1"><tag k="Pakhar-A 115.13 Ha Boundary Pillars" v="33"/><tag k="layer_name" v="Pakhar-A 115.13 Ha Boundary Pillars.csv"/></node>
<node id="-34" lat="2.1984949" lon="105.6052753" version="1"><tag k="Pakhar-A 115.13 Ha Boundary Pillars" v="34"/><tag k="layer_name" v="Pakhar-A 115.13 Ha Boundary Pillars.csv"/></node>
<node id="-35" lat="2.1984385" lon="105.6050064" version="1"><tag k="Pakhar-A 115.13 Ha Boundary Pillars" v="35"/><tag k="layer_name" v="Pakhar-A 115.13 Ha Boundary Pillars.csv"/></node>
<node id="-36" lat="2.1985305" lon="105.6049993" version="1"><tag k="Pakhar-A 115.13 Ha Boundary Pillars" v="36"/><tag k="layer_name" v="Pakhar-A 115.13 Ha Boundary Pillars.csv"/></node>
<node id="-37" lat="2.1985390" lon="105.6049193" version="1"><tag k="Pakhar-A 115.13 Ha Boundary Pillars" v="37"/><tag k="layer_name" v="Pakhar-A 115.13 Ha Boundary Pillars.csv"/></node>
<node id="-38" lat="2.1984851" lon="105.6047735" version="1"><tag k="Pakhar-A 115.13 Ha Boundary Pillars" v="38"/><tag k="layer_name" v="Pakhar-A 115.13 Ha Boundary Pillars.csv"/></node>
<node id="-39" lat="2.1985096" lon="105.6047630" version="1"><tag k="Pakhar-A 115.13 Ha Boundary Pillars" v="39"/><tag k="layer_name" v="Pakhar-A 115.13 Ha Boundary Pillars.csv"/></node>
<node id="-40" lat="2.1985695" lon="105.6048997" version="1"><tag k="Pakhar-A 115.13 Ha Boundary Pillars" v="40"/><tag k="layer_name" v="Pakhar-A 115.13 Ha Boundary Pillars.csv"/></node>
<node id="-41" lat="2.1985833" lon="105.6049510" version="1"><tag k="Pakhar-A 115.13 Ha Boundary Pillars" v="41"/><tag k="layer_name" v="Pakhar-A 115.13 Ha Boundary Pillars.csv"/></node>
<node id="-42" lat="2.1985788" lon="105.6052966" version="1"><tag k="Pakhar-A 115.13 Ha Boundary Pillars" v="42"/><tag k="layer_name" v="Pakhar-A 115.13 Ha Boundary Pillars.csv"/></node>
<node id="-43" lat="2.1985340" lon="105.6054728" version="1"><tag k="Pakhar-A 115.13 Ha Boundary Pillars" v="43"/><tag k="layer_name" v="Pakhar-A 115.13 Ha Boundary Pillars.csv"/></node>
<node id="-44" lat="2.1985613" lon="105.6056421" version="1"><tag k="Pakhar-A 115.13 Ha Boundary Pillars" v="44"/><tag k="layer_name" v="Pakhar-A 115.13 Ha Boundary Pillars.csv"/></node>
<node id="-45" lat="2.1984801" lon="105.6056694" version="1"><tag k="Pakhar-A 115.13 Ha Boundary Pillars" v="45"/><tag k="layer_name" v="Pakhar-A 115.13 Ha Boundary Pillars.csv"/></node>
<node id="-46" lat="2.1984719" lon="105.6056883" version="1"><tag k="Pakhar-A 115.13 Ha Boundary Pillars" v="46"/><tag k="layer_name" v="Pakhar-A 115.13 Ha Boundary Pillars.csv"/></node>
<node id="-47" lat="2.1985270" lon="105.6061108" version="1"><tag k="Pakhar-A 115.13 Ha Boundary Pillars" v="47"/><tag k="layer_name" v="Pakhar-A 115.13 Ha Boundary Pillars.csv"/></node>
<node id="-48" lat="2.1985314" lon="105.6061397" version="1"><tag k="Pakhar-A 115.13 Ha Boundary Pillars" v="48"/><tag k="layer_name" v="Pakhar-A 115.13 Ha Boundary Pillars.csv"/></node>
<node id="-49" lat="2.1987944" lon="105.6064761" version="1"><tag k="Pakhar-A 115.13 Ha Boundary Pillars" v="49"/><tag k="layer_name" v="Pakhar-A 115.13 Ha Boundary Pillars.csv"/></node>
<node id="-50" lat="2.1990574" lon="105.6068125" version="1"><tag k="Pakhar-A 115.13 Ha Boundary Pillars" v="50"/><tag k="layer_name" v="Pakhar-A 115.13 Ha Boundary Pillars.csv"/></node>
<node id="-51" lat="2.1993205" lon="105.6071489" version="1"><tag k="Pakhar-A 115.13 Ha Boundary Pillars" v="51"/><tag k="layer_name" v="Pakhar-A 115.13 Ha Boundary Pillars.csv"/></node>
<node id="-52" lat="2.1995835" lon="105.6074853" version="1"><tag k="Pakhar-A 115.13 Ha Boundary Pillars" v="52"/><tag k="layer_name" v="Pakhar-A 115.13 Ha Boundary Pillars.csv"/></node>
<node id="-53" lat="2.1996913" lon="105.6076232" version="1"><tag k="Pakhar-A 115.13 Ha Boundary Pillars" v="53"/><tag k="layer_name" v="Pakhar-A 115.13 Ha Boundary Pillars.csv"/></node>
<node id="-54" lat="2.1998721" lon="105.6075113" version="1"><tag k="Pakhar-A 115.13 Ha Boundary Pillars" v="54"/><tag k="layer_name" v="Pakhar-A 115.13 Ha Boundary Pillars.csv"/></node>
<node id="-55" lat="2.1998362" lon="105.6074086" version="1"><tag k="Pakhar-A 115.13 Ha Boundary Pillars" v="55"/><tag k="layer_name" v="Pakhar-A 115.13 Ha Boundary Pillars.csv"/></node>
<node id="-56" lat="2.1999237" lon="105.6073820" version="1"><tag k="Pakhar-A 115.13 Ha Boundary Pillars" v="56"/><tag k="layer_name" v="Pakhar-A 115.13 Ha Boundary Pillars.csv"/></node>
<node id="-57" lat="2.2000502" lon="105.6074417" version="1"><tag k="Pakhar-A 115.13 Ha Boundary Pillars" v="57"/><tag k="layer_name" v="Pakhar-A 115.13 Ha Boundary Pillars.csv"/></node>
<node id="-58" lat="2.1999490" lon="105.6076847" version="1"><tag k="Pakhar-A 115.13 Ha Boundary Pillars" v="58"/><tag k="layer_name" v="Pakhar-A 115.13 Ha Boundary Pillars.csv"/></node>
<node id="-59" lat="2.1999744" lon="105.6077821" version="1"><tag k="Pakhar-A 115.13 Ha Boundary Pillars" v="59"/><tag k="layer_name" v="Pakhar-A 115.13 Ha Boundary Pillars.csv"/></node>
<node id="-60" lat="2.2001367" lon="105.6077245" version="1"><tag k="Pakhar-A 115.13 Ha Boundary Pillars" v="60"/><tag k="layer_name" v="Pakhar-A 115.13 Ha Boundary Pillars.csv"/></node>
<node id="-61" lat="2.2002474" lon="105.6076199" version="1"><tag k="Pakhar-A 115.13 Ha Boundary Pillars" v="61"/><tag k="layer_name" v="Pakhar-A 115.13 Ha Boundary Pillars.csv"/></node>
<node id="-62" lat="2.2004812" lon="105.6074923" version="1"><tag k="Pakhar-A 115.13 Ha Boundary Pillars" v="62"/><tag k="layer_name" v="Pakhar-A 115.13 Ha Boundary Pillars.csv"/></node>
<node id="-63" lat="2.2005028" lon="105.6075798" version="1"><tag k="Pakhar-A 115.13 Ha Boundary Pillars" v="63"/><tag k="layer_name" v="Pakhar-A 115.13 Ha Boundary Pillars.csv"/></node>
<node id="-64" lat="2.2003185" lon="105.6076772" version="1"><tag k="Pakhar-A 115.13 Ha Boundary Pillars" v="64"/><tag k="layer_name" v="Pakhar-A 115.13 Ha Boundary Pillars.csv"/></node>
<node id="-65" lat="2.1999593" lon="105.6079898" version="1"><tag k="Pakhar-A 115.13 Ha Boundary Pillars" v="65"/><tag k="layer_name" v="Pakhar-A 115.13 Ha Boundary Pillars.csv"/></node>
<node id="-66" lat="2.2001701" lon="105.6081934" version="1"><tag k="Pakhar-A 115.13 Ha Boundary Pillars" v="66"/><tag k="layer_name" v="Pakhar-A 115.13 Ha Boundary Pillars.csv"/></node>
<node id="-67" lat="2.2004681" lon="105.6078872" version="1"><tag k="Pakhar-A 115.13 Ha Boundary Pillars" v="67"/><tag k="layer_name" v="Pakhar-A 115.13 Ha Boundary Pillars.csv"/></node>
<node id="-68" lat="2.2005412" lon="105.6078200" version="1"><tag k="Pakhar-A 115.13 Ha Boundary Pillars" v="68"/><tag k="layer_name" v="Pakhar-A 115.13 Ha Boundary Pillars.csv"/></node>
<node id="-69" lat="2.2007160" lon="105.6079039" version="1"><tag k="Pakhar-A 115.13 Ha Boundary Pillars" v="69"/><tag k="layer_name" v="Pakhar-A 115.13 Ha Boundary Pillars.csv"/></node>
<node id="-70" lat="2.2004117" lon="105.6081840" version="1"><tag k="Pakhar-A 115.13 Ha Boundary Pillars" v="70"/><tag k="layer_name" v="Pakhar-A 115.13 Ha Boundary Pillars.csv"/></node>
<node id="-71" lat="2.2002349" lon="105.6085721" version="1"><tag k="Pakhar-A 115.13 Ha Boundary Pillars" v="71"/><tag k="layer_name" v="Pakhar-A 115.13 Ha Boundary Pillars.csv"/></node>
<node id="-72" lat="2.2001657" lon="105.6086863" version="1"><tag k="Pakhar-A 115.13 Ha Boundary Pillars" v="72"/><tag k="layer_name" v="Pakhar-A 115.13 Ha Boundary Pillars.csv"/></node>
<node id="-73" lat="2.2001694" lon="105.6090165" version="1"><tag k="Pakhar-A 115.13 Ha Boundary Pillars" v="73"/><tag k="layer_name" v="Pakhar-A 115.13 Ha Boundary Pillars.csv"/></node>
<node id="-74" lat="2.2002173" lon="105.6091233" version="1"><tag k="Pakhar-A 115.13 Ha Boundary Pillars" v="74"/><tag k="layer_name" v="Pakhar-A 115.13 Ha Boundary Pillars.csv"/></node>
<node id="-75" lat="2.2001688" lon="105.6091994" version="1"><tag k="Pakhar-A 115.13 Ha Boundary Pillars" v="75"/><tag k="layer_name" v="Pakhar-A 115.13 Ha Boundary Pillars.csv"/></node>
<node id="-76" lat="2.2002992" lon="105.6096053" version="1"><tag k="Pakhar-A 115.13 Ha Boundary Pillars" v="76"/><tag k="layer_name" v="Pakhar-A 115.13 Ha Boundary Pillars.csv"/></node>
<node id="-77" lat="2.2004296" lon="105.6100112" version="1"><tag k="Pakhar-A 115.13 Ha Boundary Pillars" v="77"/><tag k="layer_name" v="Pakhar-A 115.13 Ha Boundary Pillars.csv"/></node>
<node id="-78" lat="2.2005600" lon="105.6104170" version="1"><tag k="Pakhar-A 115.13 Ha Boundary Pillars" v="78"/><tag k="layer_name" v="Pakhar-A 115.13 Ha Boundary Pillars.csv"/></node>
<node id="-79" lat="2.2006904" lon="105.6108229" version="1"><tag k="Pakhar-A 115.13 Ha Boundary Pillars" v="79"/><tag k="layer_name" v="Pakhar-A 115.13 Ha Boundary Pillars.csv"/></node>
<node id="-80" lat="2.2008208" lon="105.6112288" version="1"><tag k="Pakhar-A 115.13 Ha Boundary Pillars" v="80"/><tag k="layer_name" v="Pakhar-A 115.13 Ha Boundary Pillars.csv"/></node>
<node id="-81" lat="2.2009512" lon="105.6116346" version="1"><tag k="Pakhar-A 115.13 Ha Boundary Pillars" v="81"/><tag k="layer_name" v="Pakhar-A 115.13 Ha Boundary Pillars.csv"/></node>
<node id="-82" lat="2.2010816" lon="105.6120405" version="1"><tag k="Pakhar-A 115.13 Ha Boundary Pillars" v="82"/><tag k="layer_name" v="Pakhar-A 115.13 Ha Boundary Pillars.csv"/></node>
<node id="-83" lat="2.2012120" lon="105.6124464" version="1"><tag k="Pakhar-A 115.13 Ha Boundary Pillars" v="83"/><tag k="layer_name" v="Pakhar-A 115.13 Ha Boundary Pillars.csv"/></node>
<node id="-84" lat="2.2013424" lon="105.6128523" version="1"><tag k="Pakhar-A 115.13 Ha Boundary Pillars" v="84"/><tag k="layer_name" v="Pakhar-A 115.13 Ha Boundary Pillars.csv"/></node>
<node id="-85" lat="2.2014728" lon="105.6132581" version="1"><tag k="Pakhar-A 115.13 Ha Boundary Pillars" v="85"/><tag k="layer_name" v="Pakhar-A 115.13 Ha Boundary Pillars.csv"/></node>
<node id="-86" lat="2.2016032" lon="105.6136640" version="1"><tag k="Pakhar-A 115.13 Ha Boundary Pillars" v="86"/><tag k="layer_name" v="Pakhar-A 115.13 Ha Boundary Pillars.csv"/></node>
<node id="-87" lat="2.2017336" lon="105.6140699" version="1"><tag k="Pakhar-A 115.13 Ha Boundary Pillars" v="87"/><tag k="layer_name" v="Pakhar-A 115.13 Ha Boundary Pillars.csv"/></node>
<node id="-88" lat="2.2018838" lon="105.6145376" version="1"><tag k="Pakhar-A 115.13 Ha Boundary Pillars" v="88"/><tag k="layer_name" v="Pakhar-A 115.13 Ha Boundary Pillars.csv"/></node>
<node id="-89" lat="2.2021892" lon="105.6142387" version="1"><tag k="Pakhar-A 115.13 Ha Boundary Pillars" v="89"/><tag k="layer_name" v="Pakhar-A 115.13 Ha Boundary Pillars.csv"/></node>
<node id="-90" lat="2.2024945" lon="105.6139397" version="1"><tag k="Pakhar-A 115.13 Ha Boundary Pillars" v="90"/><tag k="layer_name" v="Pakhar-A 115.13 Ha Boundary Pillars.csv"/></node>
<node id="-91" lat="2.2027999" lon="105.6136408" version="1"><tag k="Pakhar-A 115.13 Ha Boundary Pillars" v="91"/><tag k="layer_name" v="Pakhar-A 115.13 Ha Boundary Pillars.csv"/></node>
<node id="-92" lat="2.2028529" lon="105.6135889" version="1"><tag k="Pakhar-A 115.13 Ha Boundary Pillars" v="92"/><tag k="layer_name" v="Pakhar-A 115.13 Ha Boundary Pillars.csv"/></node>
<node id="-93" lat="2.2030144" lon="105.6131943" version="1"><tag k="Pakhar-A 115.13 Ha Boundary Pillars" v="93"/><tag k="layer_name" v="Pakhar-A 115.13 Ha Boundary Pillars.csv"/></node>
<node id="-94" lat="2.2031760" lon="105.6127997" version="1"><tag k="Pakhar-A 115.13 Ha Boundary Pillars" v="94"/><tag k="layer_name" v="Pakhar-A 115.13 Ha Boundary Pillars.csv"/></node>
<node id="-95" lat="2.2033376" lon="105.6124050" version="1"><tag k="Pakhar-A 115.13 Ha Boundary Pillars" v="95"/><tag k="layer_name" v="Pakhar-A 115.13 Ha Boundary Pillars.csv"/></node>
<node id="-96" lat="2.2034991" lon="105.6120104" version="1"><tag k="Pakhar-A 115.13 Ha Boundary Pillars" v="96"/><tag k="layer_name" v="Pakhar-A 115.13 Ha Boundary Pillars.csv"/></node>
<node id="-97" lat="2.2036607" lon="105.6116158" version="1"><tag k="Pakhar-A 115.13 Ha Boundary Pillars" v="97"/><tag k="layer_name" v="Pakhar-A 115.13 Ha Boundary Pillars.csv"/></node>
<node id="-98" lat="2.2038223" lon="105.6112211" version="1"><tag k="Pakhar-A 115.13 Ha Boundary Pillars" v="98"/><tag k="layer_name" v="Pakhar-A 115.13 Ha Boundary Pillars.csv"/></node>
<node id="-99" lat="2.2039839" lon="105.6108265" version="1"><tag k="Pakhar-A 115.13 Ha Boundary Pillars" v="99"/><tag k="layer_name" v="Pakhar-A 115.13 Ha Boundary Pillars.csv"/></node>
<node id="-100" lat="2.2041454" lon="105.6104319" version="1"><tag k="Pakhar-A 115.13 Ha Boundary Pillars" v="100"/><tag k="layer_name" v="Pakhar-A 115.13 Ha Boundary Pillars.csv"/></node>
<node id="-101" lat="2.2043070" lon="105.6100372" version="1"><tag k="Pakhar-A 115.13 Ha Boundary Pillars" v="101"/><tag k="layer_name" v="Pakhar-A 115.13 Ha Boundary Pillars.csv"/></node>
<node id="-102" lat="2.2044686" lon="105.6096426" version="1"><tag k="Pakhar-A 115.13 Ha Boundary Pillars" v="102"/><tag k="layer_name" v="Pakhar-A 115.13 Ha Boundary Pillars.csv"/></node>
<node id="-103" lat="2.2045794" lon="105.6093720" version="1"><tag k="Pakhar-A 115.13 Ha Boundary Pillars" v="103"/><tag k="layer_name" v="Pakhar-A 115.13 Ha Boundary Pillars.csv"/></node>
<node id="-104" lat="2.2042485" lon="105.6091012" version="1"><tag k="Pakhar-A 115.13 Ha Boundary Pillars" v="104"/><tag k="layer_name" v="Pakhar-A 115.13 Ha Boundary Pillars.csv"/></node>
<node id="-105" lat="2.2039176" lon="105.6088304" version="1"><tag k="Pakhar-A 115.13 Ha Boundary Pillars" v="105"/><tag k="layer_name" v="Pakhar-A 115.13 Ha Boundary Pillars.csv"/></node>
<node id="-106" lat="2.2035895" lon="105.6085563" version="1"><tag k="Pakhar-A 115.13 Ha Boundary Pillars" v="106"/><tag k="layer_name" v="Pakhar-A 115.13 Ha Boundary Pillars.csv"/></node>
<node id="-107" lat="2.2032639" lon="105.6082793" version="1"><tag k="Pakhar-A 115.13 Ha Boundary Pillars" v="107"/><tag k="layer_name" v="Pakhar-A 115.13 Ha Boundary Pillars.csv"/></node>
<node id="-108" lat="2.2029382" lon="105.6080023" version="1"><tag k="Pakhar-A 115.13 Ha Boundary Pillars" v="108"/><tag k="layer_name" v="Pakhar-A 115.13 Ha Boundary Pillars.csv"/></node>
<node id="-109" lat="2.2028074" lon="105.6078909" version="1"><tag k="Pakhar-A 115.13 Ha Boundary Pillars" v="109"/><tag k="layer_name" v="Pakhar-A 115.13 Ha Boundary Pillars.csv"/></node>
<node id="-110" lat="2.2025900" lon="105.6075237" version="1"><tag k="Pakhar-A 115.13 Ha Boundary Pillars" v="110"/><tag k="layer_name" v="Pakhar-A 115.13 Ha Boundary Pillars.csv"/></node>
<node id="-111" lat="2.2023726" lon="105.6071565" version="1"><tag k="Pakhar-A 115.13 Ha Boundary Pillars" v="111"/><tag k="layer_name" v="Pakhar-A 115.13 Ha Boundary Pillars.csv"/></node>
<node id="-112" lat="2.2021552" lon="105.6067893" version="1"><tag k="Pakhar-A 115.13 Ha Boundary Pillars" v="112"/><tag k="layer_name" v="Pakhar-A 115.13 Ha Boundary Pillars.csv"/></node>
<node id="-113" lat="2.2019326" lon="105.6064133" version="1"><tag k="Pakhar-A 115.13 Ha Boundary Pillars" v="113"/><tag k="layer_name" v="Pakhar-A 115.13 Ha Boundary Pillars.csv"/></node>
<node id="-114" lat="2.2018739" lon="105.6059913" version="1"><tag k="Pakhar-A 115.13 Ha Boundary Pillars" v="114"/><tag k="layer_name" v="Pakhar-A 115.13 Ha Boundary Pillars.csv"/></node>
<node id="-115" lat="2.2018213" lon="105.6056140" version="1"><tag k="Pakhar-A 115.13 Ha Boundary Pillars" v="115"/><tag k="layer_name" v="Pakhar-A 115.13 Ha Boundary Pillars.csv"/></node>
<node id="-116" lat="2.2021897" lon="105.6053591" version="1"><tag k="Pakhar-A 115.13 Ha Boundary Pillars" v="116"/><tag k="layer_name" v="Pakhar-A 115.13 Ha Boundary Pillars.csv"/></node>
<node id="-117" lat="2.2019185" lon="105.6050292" version="1"><tag k="Pakhar-A 115.13 Ha Boundary Pillars" v="117"/><tag k="layer_name" v="Pakhar-A 115.13 Ha Boundary Pillars.csv"/></node>
<node id="-118" lat="2.2016473" lon="105.6046993" version="1"><tag k="Pakhar-A 115.13 Ha Boundary Pillars" v="118"/><tag k="layer_name" v="Pakhar-A 115.13 Ha Boundary Pillars.csv"/></node>
<node id="-119" lat="2.2013753" lon="105.6043700" version="1"><tag k="Pakhar-A 115.13 Ha Boundary Pillars" v="119"/><tag k="layer_name" v="Pakhar-A 115.13 Ha Boundary Pillars.csv"/></node>
<node id="-120" lat="2.2011029" lon="105.6040410" version="1"><tag k="Pakhar-A 115.13 Ha Boundary Pillars" v="120"/><tag k="layer_name" v="Pakhar-A 115.13 Ha Boundary Pillars.csv"/></node>
<node id="-121" lat="2.2008907" lon="105.6037847" version="1"><tag k="Pakhar-A 115.13 Ha Boundary Pillars" v="121"/><tag k="layer_name" v="Pakhar-A 115.13 Ha Boundary Pillars.csv"/></node>
<node id="-122" lat="2.2010940" lon="105.6036166" version="1"><tag k="Pakhar-A 115.13 Ha Boundary Pillars" v="122"/><tag k="layer_name" v="Pakhar-A 115.13 Ha Boundary Pillars.csv"/></node>
<node id="-123" lat="2.2008295" lon="105.6032813" version="1"><tag k="Pakhar-A 115.13 Ha Boundary Pillars" v="123"/><tag k="layer_name" v="Pakhar-A 115.13 Ha Boundary Pillars.csv"/></node>
<node id="-124" lat="2.2005651" lon="105.6029460" version="1"><tag k="Pakhar-A 115.13 Ha Boundary Pillars" v="124"/><tag k="layer_name" v="Pakhar-A 115.13 Ha Boundary Pillars.csv"/></node>
<node id="-125" lat="2.2003902" lon="105.6027578" version="1"><tag k="Pakhar-A 115.13 Ha Boundary Pillars" v="125"/><tag k="layer_name" v="Pakhar-A 115.13 Ha Boundary Pillars.csv"/></node>
<node id="-126" lat="2.1999466" lon="105.6028663" version="1"><tag k="Pakhar-A 115.13 Ha Boundary Pillars" v="126"/><tag k="layer_name" v="Pakhar-A 115.13 Ha Boundary Pillars.csv"/></node>
<node id="-127" lat="2.1998592" lon="105.6026449" version="1"><tag k="Pakhar-A 115.13 Ha Boundary Pillars" v="127"/><tag k="layer_name" v="Pakhar-A 115.13 Ha Boundary Pillars.csv"/></node>
<node id="-128" lat="2.1997830" lon="105.6026536" version="1"><tag k="Pakhar-A 115.13 Ha Boundary Pillars" v="128"/><tag k="layer_name" v="Pakhar-A 115.13 Ha Boundary Pillars.csv"/></node>
<node id="-129" lat="2.1997072" lon="105.6024574" version="1"><tag k="Pakhar-A 115.13 Ha Boundary Pillars" v="129"/><tag k="layer_name" v="Pakhar-A 115.13 Ha Boundary Pillars.csv"/></node>
<node id="-130" lat="2.1995177" lon="105.6025804" version="1"><tag k="Pakhar-A 115.13 Ha Boundary Pillars" v="130"/><tag k="layer_name" v="Pakhar-A 115.13 Ha Boundary Pillars.csv"/></node>
<node id="-131" lat="2.1995159" lon="105.6027163" version="1"><tag k="Pakhar-A 115.13 Ha Boundary Pillars" v="131"/><tag k="layer_name" v="Pakhar-A 115.13 Ha Boundary Pillars.csv"/></node>
<node id="-132" lat="2.1991016" lon="105.6028351" version="1"><tag k="Pakhar-A 115.13 Ha Boundary Pillars" v="132"/><tag k="layer_name" v="Pakhar-A 115.13 Ha Boundary Pillars.csv"/></node>
<node id="-133" lat="2.1987010" lon="105.6029866" version="1"><tag k="Pakhar-A 115.13 Ha Boundary Pillars" v="133"/><tag k="layer_name" v="Pakhar-A 115.13 Ha Boundary Pillars.csv"/></node>
<node id="-134" lat="2.1984736" lon="105.6030722" version="1"><tag k="Pakhar-A 115.13 Ha Boundary Pillars" v="134"/><tag k="layer_name" v="Pakhar-A 115.13 Ha Boundary Pillars.csv"/></node>
<node id="-135" lat="2.1982919" lon="105.6028677" version="1"><tag k="Pakhar-A 115.13 Ha Boundary Pillars" v="135"/><tag k="layer_name" v="Pakhar-A 115.13 Ha Boundary Pillars.csv"/></node>
<node id="-136" lat="2.1983514" lon="105.6028186" version="1"><tag k="Pakhar-A 115.13 Ha Boundary Pillars" v="136"/><tag k="layer_name" v="Pakhar-A 115.13 Ha Boundary Pillars.csv"/></node>
<node id="-137" lat="2.1984720" lon="105.6027966" version="1"><tag k="Pakhar-A 115.13 Ha Boundary Pillars" v="137"/><tag k="layer_name" v="Pakhar-A 115.13 Ha Boundary Pillars.csv"/></node>
<node id="-138" lat="2.1988380" lon="105.6025749" version="1"><tag k="Pakhar-A 115.13 Ha Boundary Pillars" v="138"/><tag k="layer_name" v="Pakhar-A 115.13 Ha Boundary Pillars.csv"/></node>
<node id="-139" lat="2.1989003" lon="105.6025163" version="1"><tag k="Pakhar-A 115.13 Ha Boundary Pillars" v="139"/><tag k="layer_name" v="Pakhar-A 115.13 Ha Boundary Pillars.csv"/></node>
<node id="-140" lat="2.1988773" lon="105.6024739" version="1"><tag k="Pakhar-A 115.13 Ha Boundary Pillars" v="140"/><tag k="layer_name" v="Pakhar-A 115.13 Ha Boundary Pillars.csv"/></node>
<node id="-141" lat="2.1991784" lon="105.6023363" version="1"><tag k="Pakhar-A 115.13 Ha Boundary Pillars" v="141"/><tag k="layer_name" v="Pakhar-A 115.13 Ha Boundary Pillars.csv"/></node>
<node id="-142" lat="2.1996069" lon="105.6023427" version="1"><tag k="Pakhar-A 115.13 Ha Boundary Pillars" v="142"/><tag k="layer_name" v="Pakhar-A 115.13 Ha Boundary Pillars.csv"/></node>
<node id="-143" lat="2.1997081" lon="105.6023398" version="1"><tag k="Pakhar-A 115.13 Ha Boundary Pillars" v="143"/><tag k="layer_name" v="Pakhar-A 115.13 Ha Boundary Pillars.csv"/></node>
<node id="-144" lat="2.1998765" lon="105.6022472" version="1"><tag k="Pakhar-A 115.13 Ha Boundary Pillars" v="144"/><tag k="layer_name" v="Pakhar-A 115.13 Ha Boundary Pillars.csv"/></node>
<node id="-145" lat="2.2001392" lon="105.6021444" version="1"><tag k="Pakhar-A 115.13 Ha Boundary Pillars" v="145"/><tag k="layer_name" v="Pakhar-A 115.13 Ha Boundary Pillars.csv"/></node>
<node id="-146" lat="2.2001175" lon="105.6020393" version="1"><tag k="Pakhar-A 115.13 Ha Boundary Pillars" v="146"/><tag k="layer_name" v="Pakhar-A 115.13 Ha Boundary Pillars.csv"/></node>
<node id="-147" lat="2.1997034" lon="105.6021493" version="1"><tag k="Pakhar-A 115.13 Ha Boundary Pillars" v="147"/><tag k="layer_name" v="Pakhar-A 115.13 Ha Boundary Pillars.csv"/></node>
<node id="-148" lat="2.1992786" lon="105.6022062" version="1"><tag k="Pakhar-A 115.13 Ha Boundary Pillars" v="148"/><tag k="layer_name" v="Pakhar-A 115.13 Ha Boundary Pillars.csv"/></node>
<node id="-149" lat="2.1991336" lon="105.6022226" version="1"><tag k="Pakhar-A 115.13 Ha Boundary Pillars" v="149"/><tag k="layer_name" v="Pakhar-A 115.13 Ha Boundary Pillars.csv"/></node>
<node id="-150" lat="2.1990356" lon="105.6022765" version="1"><tag k="Pakhar-A 115.13 Ha Boundary Pillars" v="150"/><tag k="layer_name" v="Pakhar-A 115.13 Ha Boundary Pillars.csv"/></node>
<node id="-151" lat="2.1990166" lon="105.6022679" version="1"><tag k="Pakhar-A 115.13 Ha Boundary Pillars" v="151"/><tag k="layer_name" v="Pakhar-A 115.13 Ha Boundary Pillars.csv"/></node>
<node id="-152" lat="2.1986349" lon="105.6024617" version="1"><tag k="Pakhar-A 115.13 Ha Boundary Pillars" v="152"/><tag k="layer_name" v="Pakhar-A 115.13 Ha Boundary Pillars.csv"/></node>
<node id="-153" lat="2.1985777" lon="105.6024889" version="1"><tag k="Pakhar-A 115.13 Ha Boundary Pillars" v="153"/><tag k="layer_name" v="Pakhar-A 115.13 Ha Boundary Pillars.csv"/></node>
<node id="-154" lat="2.1984867" lon="105.6024841" version="1"><tag k="Pakhar-A 115.13 Ha Boundary Pillars" v="154"/><tag k="layer_name" v="Pakhar-A 115.13 Ha Boundary Pillars.csv"/></node>
<node id="-155" lat="2.1984171" lon="105.6024069" version="1"><tag k="Pakhar-A 115.13 Ha Boundary Pillars" v="155"/><tag k="layer_name" v="Pakhar-A 115.13 Ha Boundary Pillars.csv"/></node>
<node id="-156" lat="2.1988088" lon="105.6022340" version="1"><tag k="Pakhar-A 115.13 Ha Boundary Pillars" v="156"/><tag k="layer_name" v="Pakhar-A 115.13 Ha Boundary Pillars.csv"/></node>
<node id="-157" lat="2.1989162" lon="105.6021671" version="1"><tag k="Pakhar-A 115.13 Ha Boundary Pillars" v="157"/><tag k="layer_name" v="Pakhar-A 115.13 Ha Boundary Pillars.csv"/></node>
<node id="-158" lat="2.1988676" lon="105.6020568" version="1"><tag k="Pakhar-A 115.13 Ha Boundary Pillars" v="158"/><tag k="layer_name" v="Pakhar-A 115.13 Ha Boundary Pillars.csv"/></node>
<node id="-159" lat="2.1989008" lon="105.6019876" version="1"><tag k="Pakhar-A 115.13 Ha Boundary Pillars" v="159"/><tag k="layer_name" v="Pakhar-A 115.13 Ha Boundary Pillars.csv"/></node>
<node id="-160" lat="2.1989757" lon="105.6019448" version="1"><tag k="Pakhar-A 115.13 Ha Boundary Pillars" v="160"/><tag k="layer_name" v="Pakhar-A 115.13 Ha Boundary Pillars.csv"/></node>
<node id="-161" lat="2.1990482" lon="105.6020439" version="1"><tag k="Pakhar-A 115.13 Ha Boundary Pillars" v="161"/><tag k="layer_name" v="Pakhar-A 115.13 Ha Boundary Pillars.csv"/></node>
<node id="-162" lat="2.1991726" lon="105.6021409" version="1"><tag k="Pakhar-A 115.13 Ha Boundary Pillars" v="162"/><tag k="layer_name" v="Pakhar-A 115.13 Ha Boundary Pillars.csv"/></node>
<node id="-163" lat="2.1993387" lon="105.6020968" version="1"><tag k="Pakhar-A 115.13 Ha Boundary Pillars" v="163"/><tag k="layer_name" v="Pakhar-A 115.13 Ha Boundary Pillars.csv"/></node>
<node id="-164" lat="2.1994030" lon="105.6019776" version="1"><tag k="Pakhar-A 115.13 Ha Boundary Pillars" v="164"/><tag k="layer_name" v="Pakhar-A 115.13 Ha Boundary Pillars.csv"/></node>
<node id="-165" lat="2.1996698" lon="105.6018695" version="1"><tag k="Pakhar-A 115.13 Ha Boundary Pillars" v="165"/><tag k="layer_name" v="Pakhar-A 115.13 Ha Boundary Pillars.csv"/></node>
<node id="-166" lat="2.1998245" lon="105.6018763" version="1"><tag k="Pakhar-A 115.13 Ha Boundary Pillars" v="166"/><tag k="layer_name" v="Pakhar-A 115.13 Ha Boundary Pillars.csv"/></node>
<node id="-167" lat="2.2000445" lon="105.6017896" version="1"><tag k="Pakhar-A 115.13 Ha Boundary Pillars" v="167"/><tag k="layer_name" v="Pakhar-A 115.13 Ha Boundary Pillars.csv"/></node>
<node id="-168" lat="2.2001123" lon="105.6017213" version="1"><tag k="Pakhar-A 115.13 Ha Boundary Pillars" v="168"/><tag k="layer_name" v="Pakhar-A 115.13 Ha Boundary Pillars.csv"/></node>
<node id="-169" lat="2.2002409" lon="105.6016810" version="1"><tag k="Pakhar-A 115.13 Ha Boundary Pillars" v="169"/><tag k="layer_name" v="Pakhar-A 115.13 Ha Boundary Pillars.csv"/></node>
<node id="-170" lat="2.2002528" lon="105.6012551" version="1"><tag k="Pakhar-A 115.13 Ha Boundary Pillars" v="170"/><tag k="layer_name" v="Pakhar-A 115.13 Ha Boundary Pillars.csv"/></node>
<node id="-171" lat="2.2002913" lon="105.6008307" version="1"><tag k="Pakhar-A 115.13 Ha Boundary Pillars" v="171"/><tag k="layer_name" v="Pakhar-A 115.13 Ha Boundary Pillars.csv"/></node>
<node id="-172" lat="2.2003127" lon="105.6006459" version="1"><tag k="Pakhar-A 115.13 Ha Boundary Pillars" v="172"/><tag k="layer_name" v="Pakhar-A 115.13 Ha Boundary Pillars.csv"/></node>
<node id="-173" lat="2.2005796" lon="105.6003125" version="1"><tag k="Pakhar-A 115.13 Ha Boundary Pillars" v="173"/><tag k="layer_name" v="Pakhar-A 115.13 Ha Boundary Pillars.csv"/></node>
<node id="-174" lat="2.2008041" lon="105.6000094" version="1"><tag k="Pakhar-A 115.13 Ha Boundary Pillars" v="174"/><tag k="layer_name" v="Pakhar-A 115.13 Ha Boundary Pillars.csv"/></node>
<node id="-175" lat="2.2005431" lon="105.5996715" version="1"><tag k="Pakhar-A 115.13 Ha Boundary Pillars" v="175"/><tag k="layer_name" v="Pakhar-A 115.13 Ha Boundary Pillars.csv"/></node>
<node id="-176" lat="2.2002840" lon="105.5993320" version="1"><tag k="Pakhar-A 115.13 Ha Boundary Pillars" v="176"/><tag k="layer_name" v="Pakhar-A 115.13 Ha Boundary Pillars.csv"/></node>
<node id="-177" lat="2.2000279" lon="105.5989903" version="1"><tag k="Pakhar-A 115.13 Ha Boundary Pillars" v="177"/><tag k="layer_name" v="Pakhar-A 115.13 Ha Boundary Pillars.csv"/></node>
<node id="-178" lat="2.1997554" lon="105.5986615" version="1"><tag k="Pakhar-A 115.13 Ha Boundary Pillars" v="178"/><tag k="layer_name" v="Pakhar-A 115.13 Ha Boundary Pillars.csv"/></node>
<node id="-179" lat="2.1994692" lon="105.5983520" version="1"><tag k="Pakhar-A 115.13 Ha Boundary Pillars" v="179"/><tag k="layer_name" v="Pakhar-A 115.13 Ha Boundary Pillars.csv"/></node>
<node id="-180" lat="2.1993269" lon="105.5981931" version="1"><tag k="Pakhar-A 115.13 Ha Boundary Pillars" v="180"/><tag k="layer_name" v="Pakhar-A 115.13 Ha Boundary Pillars.csv"/></node>
<node id="-181" lat="2.1991026" lon="105.5978300" version="1"><tag k="Pakhar-A 115.13 Ha Boundary Pillars" v="181"/><tag k="layer_name" v="Pakhar-A 115.13 Ha Boundary Pillars.csv"/></node>
<node id="-182" lat="2.1989161" lon="105.5975360" version="1"><tag k="Pakhar-A 115.13 Ha Boundary Pillars" v="182"/><tag k="layer_name" v="Pakhar-A 115.13 Ha Boundary Pillars.csv"/></node>
<node id="-183" lat="2.1985357" lon="105.5973397" version="1"><tag k="Pakhar-A 115.13 Ha Boundary Pillars" v="183"/><tag k="layer_name" v="Pakhar-A 115.13 Ha Boundary Pillars.csv"/></node>
<node id="-184" lat="2.1981540" lon="105.5971458" version="1"><tag k="Pakhar-A 115.13 Ha Boundary Pillars" v="184"/><tag k="layer_name" v="Pakhar-A 115.13 Ha Boundary Pillars.csv"/></node>
<node id="-185" lat="2.1979534" lon="105.5970444" version="1"><tag k="Pakhar-A 115.13 Ha Boundary Pillars" v="185"/><tag k="layer_name" v="Pakhar-A 115.13 Ha Boundary Pillars.csv"/></node>
<node id="-186" lat="2.1976268" lon="105.5967684" version="1"><tag k="Pakhar-A 115.13 Ha Boundary Pillars" v="186"/><tag k="layer_name" v="Pakhar-A 115.13 Ha Boundary Pillars.csv"/></node>
<node id="-187" lat="2.1973008" lon="105.5964917" version="1"><tag k="Pakhar-A 115.13 Ha Boundary Pillars" v="187"/><tag k="layer_name" v="Pakhar-A 115.13 Ha Boundary Pillars.csv"/></node>
<node id="-188" lat="2.1972502" lon="105.5964467" version="1"><tag k="Pakhar-A 115.13 Ha Boundary Pillars" v="188"/><tag k="layer_name" v="Pakhar-A 115.13 Ha Boundary Pillars.csv"/></node>
</osm>
