{"type":"Topology","arcs":[],"objects":{"Pakhar-A 115.13 Ha Boundary Pillars.csv":{"type":"GeometryCollection","geometries":[{"type":"Point","coordinates":[2605201.531,256320.247],"properties":{"Pakhar-A 115.13 Ha Boundary Pillars":1},"id":1},{"type":"Point","coordinates":[2605250.66,256329.539],"properties":{"Pakhar-A 115.13 Ha Boundary Pillars":2},"id":2},{"type":"Point","coordinates":[2605279.989,256335.087],"properties":{"Pakhar-A 115.13 Ha Boundary Pillars":3},"id":3},{"type":"Point","coordinates":[2605326.528,256316.809],"properties":{"Pakhar-A 115.13 Ha Boundary Pillars":4},"id":4},{"type":"Point","coordinates":[2605373.068,256298.532],"properties":{"Pakhar-A 115.13 Ha Boundary Pillars":5},"id":5},{"type":"Point","coordinates":[2605419.608,256280.254],"properties":{"Pakhar-A 115.13 Ha Boundary Pillars":6},"id":6},{"type":"Point","coordinates":[2605466.147,256261.976],"properties":{"Pakhar-A 115.13 Ha Boundary Pillars":7},"id":7},{"type":"Point","coordinates":[2605512.687,256243.699],"properties":{"Pakhar-A 115.13 Ha Boundary Pillars":8},"id":8},{"type":"Point","coordinates":[2605559.226,256225.421],"properties":{"Pakhar-A 115.13 Ha Boundary Pillars":9},"id":9},{"type":"Point","coordinates":[2605605.766,256207.143],"properties":{"Pakhar-A 115.13 Ha Boundary Pillars":10},"id":10},{"type":"Point","coordinates":[2605652.305,256188.866],"properties":{"Pakhar-A 115.13 Ha Boundary Pillars":11},"id":11},{"type":"Point","coordinates":[2605698.872,256170.658],"properties":{"Pakhar-A 115.13 Ha Boundary Pillars":12},"id":12},{"type":"Point","coordinates":[2605745.799,256153.398],"properties":{"Pakhar-A 115.13 Ha Boundary Pillars":13},"id":13},{"type":"Point","coordinates":[2605792.725,256136.138],"properties":{"Pakhar-A 115.13 Ha Boundary Pillars":14},"id":14},{"type":"Point","coordinates":[2605833.071,256121.299],"properties":{"Pakhar-A 115.13 Ha Boundary Pillars":15},"id":15},{"type":"Point","coordinates":[2605874.134,256149.827],"properties":{"Pakhar-A 115.13 Ha Boundary Pillars":16},"id":16},{"type":"Point","coordinates":[2605915.197,256178.355],"properties":{"Pakhar-A 115.13 Ha Boundary Pillars":17},"id":17},{"type":"Point","coordinates":[2605956.259,256206.883],"properties":{"Pakhar-A 115.13 Ha Boundary Pillars":18},"id":18},{"type":"Point","coordinates":[2605997.032,256235.825],"properties":{"Pakhar-A 115.13 Ha Boundary Pillars":19},"id":19},{"type":"Point","coordinates":[2606037.034,256265.822],"properties":{"Pakhar-A 115.13 Ha Boundary Pillars":20},"id":20},{"type":"Point","coordinates":[2606077.035,256295.82],"properties":{"Pakhar-A 115.13 Ha Boundary Pillars":21},"id":21},{"type":"Point","coordinates":[2606117.037,256325.817],"properties":{"Pakhar-A 115.13 Ha Boundary Pillars":22},"id":22},{"type":"Point","coordinates":[2606157.039,256355.814],"properties":{"Pakhar-A 115.13 Ha Boundary Pillars":23},"id":23},{"type":"Point","coordinates":[2606197.041,256385.812],"properties":{"Pakhar-A 115.13 Ha Boundary Pillars":24},"id":24},{"type":"Point","coordinates":[2606237.043,256415.809],"properties":{"Pakhar-A 115.13 Ha Boundary Pillars":25},"id":25},{"type":"Point","coordinates":[2606277.045,256445.807],"properties":{"Pakhar-A 115.13 Ha Boundary Pillars":26},"id":26},{"type":"Point","coordinates":[2606286.423,256452.839],"properties":{"Pakhar-A 115.13 Ha Boundary Pillars":27},"id":27},{"type":"Point","coordinates":[2606274.145,256450.344],"properties":{"Pakhar-A 115.13 Ha Boundary Pillars":28},"id":28},{"type":"Point","coordinates":[2606274.069,256458.121],"properties":{"Pakhar-A 115.13 Ha Boundary Pillars":29},"id":29},{"type":"Point","coordinates":[2606283.471,256457.159],"properties":{"Pakhar-A 115.13 Ha Boundary Pillars":30},"id":30},{"type":"Point","coordinates":[2606286.809,256465.673],"properties":{"Pakhar-A 115.13 Ha Boundary Pillars":31},"id":31},{"type":"Point","coordinates":[2606272.286,256470.196],"properties":{"Pakhar-A 115.13 Ha Boundary Pillars":32},"id":32},{"type":"Point","coordinates":[2606274.049,256478.295],"properties":{"Pakhar-A 115.13 Ha Boundary Pillars":33},"id":33},{"type":"Point","coordinates":[2606246.937,256485.136],"properties":{"Pakhar-A 115.13 Ha Boundary Pillars":34},"id":34},{"type":"Point","coordinates":[2606215.468,256478.146],"properties":{"Pakhar-A 115.13 Ha Boundary Pillars":35},"id":35},{"type":"Point","coordinates":[2606214.498,256488.874],"properties":{"Pakhar-A 115.13 Ha Boundary Pillars":36},"id":36},{"type":"Point","coordinates":[2606205.098,256489.738],"properties":{"Pakhar-A 115.13 Ha Boundary Pillars":37},"id":37},{"type":"Point","coordinates":[2606188.069,256483.232],"properties":{"Pakhar-A 115.13 Ha Boundary Pillars":38},"id":38},{"type":"Point","coordinates":[2606186.808,256486.079],"properties":{"Pakhar-A 115.13 Ha Boundary Pillars":39},"id":39},{"type":"Point","coordinates":[2606202.748,256493.266],"properties":{"Pakhar-A 115.13 Ha Boundary Pillars":40},"id":40},{"type":"Point","coordinates":[2606208.755,256494.952],"properties":{"Pakhar-A 115.13 Ha Boundary Pillars":41},"id":41},{"type":"Point","coordinates":[2606249.307,256494.952],"properties":{"Pakhar-A 115.13 Ha Boundary Pillars":42},"id":42},{"type":"Point","coordinates":[2606270.058,256489.993],"properties":{"Pakhar-A 115.13 Ha Boundary Pillars":43},"id":43},{"type":"Point","coordinates":[2606289.88,256493.434],"properties":{"Pakhar-A 115.13 Ha Boundary Pillars":44},"id":44},{"type":"Point","coordinates":[2606293.201,256484.01],"properties":{"Pakhar-A 115.13 Ha Boundary Pillars":45},"id":45},{"type":"Point","coordinates":[2606295.431,256483.075],"properties":{"Pakhar-A 115.13 Ha Boundary Pillars":46},"id":46},{"type":"Point","coordinates":[2606344.929,256490.143],"properties":{"Pakhar-A 115.13 Ha Boundary Pillars":47},"id":47},{"type":"Point","coordinates":[2606348.302,256490.705],"properties":{"Pakhar-A 115.13 Ha Boundary Pillars":48},"id":48},{"type":"Point","coordinates":[2606387.379,256521.898],"properties":{"Pakhar-A 115.13 Ha Boundary Pillars":49},"id":49},{"type":"Point","coordinates":[2606426.456,256553.091],"properties":{"Pakhar-A 115.13 Ha Boundary Pillars":50},"id":50},{"type":"Point","coordinates":[2606465.532,256584.284],"properties":{"Pakhar-A 115.13 Ha Boundary Pillars":51},"id":51},{"type":"Point","coordinates":[2606504.609,256615.478],"properties":{"Pakhar-A 115.13 Ha Boundary Pillars":52},"id":52},{"type":"Point","coordinates":[2606520.629,256628.266],"properties":{"Pakhar-A 115.13 Ha Boundary Pillars":53},"id":53},{"type":"Point","coordinates":[2606507.228,256649.182],"properties":{"Pakhar-A 115.13 Ha Boundary Pillars":54},"id":54},{"type":"Point","coordinates":[2606495.23,256644.835],"properties":{"Pakhar-A 115.13 Ha Boundary Pillars":55},"id":55},{"type":"Point","coordinates":[2606491.976,256655.013],"properties":{"Pakhar-A 115.13 Ha Boundary Pillars":56},"id":56},{"type":"Point","coordinates":[2606498.795,256669.856],"properties":{"Pakhar-A 115.13 Ha Boundary Pillars":57},"id":57},{"type":"Point","coordinates":[2606527.459,256658.423],"properties":{"Pakhar-A 115.13 Ha Boundary Pillars":58},"id":58},{"type":"Point","coordinates":[2606538.85,256661.529],"properties":{"Pakhar-A 115.13 Ha Boundary Pillars":59},"id":59},{"type":"Point","coordinates":[2606531.84,256680.371],"properties":{"Pakhar-A 115.13 Ha Boundary Pillars":60},"id":60},{"type":"Point","coordinates":[2606519.402,256693.135],"properties":{"Pakhar-A 115.13 Ha Boundary Pillars":61},"id":61},{"type":"Point","coordinates":[2606504.074,256720.209],"properties":{"Pakhar-A 115.13 Ha Boundary Pillars":62},"id":62},{"type":"Point","coordinates":[2606514.312,256722.859],"properties":{"Pakhar-A 115.13 Ha Boundary Pillars":63},"id":63},{"type":"Point","coordinates":[2606526.018,256701.506],"properties":{"Pakhar-A 115.13 Ha Boundary Pillars":64},"id":64},{"type":"Point","coordinates":[2606563.236,256660.088],"properties":{"Pakhar-A 115.13 Ha Boundary Pillars":65},"id":65},{"type":"Point","coordinates":[2606586.814,256684.98],"properties":{"Pakhar-A 115.13 Ha Boundary Pillars":66},"id":66},{"type":"Point","coordinates":[2606550.431,256719.277],"properties":{"Pakhar-A 115.13 Ha Boundary Pillars":67},"id":67},{"type":"Point","coordinates":[2606542.443,256727.702],"properties":{"Pakhar-A 115.13 Ha Boundary Pillars":68},"id":68},{"type":"Point","coordinates":[2606552.015,256748.229],"properties":{"Pakhar-A 115.13 Ha Boundary Pillars":69},"id":69},{"type":"Point","coordinates":[2606585.344,256713.151],"properties":{"Pakhar-A 115.13 Ha Boundary Pillars":70},"id":70},{"type":"Point","coordinates":[2606631.153,256693.114],"properties":{"Pakhar-A 115.13 Ha Boundary Pillars":71},"id":71},{"type":"Point","coordinates":[2606644.656,256685.213],"properties":{"Pakhar-A 115.13 Ha Boundary Pillars":72},"id":72},{"type":"Point","coordinates":[2606683.397,256686.149],"properties":{"Pakhar-A 115.13 Ha Boundary Pillars":73},"id":73},{"type":"Point","coordinates":[2606695.852,256691.898],"properties":{"Pakhar-A 115.13 Ha Boundary Pillars":74},"id":74},{"type":"Point","coordinates":[2606704.855,256686.36],"properties":{"Pakhar-A 115.13 Ha Boundary Pillars":75},"id":75},{"type":"Point","coordinates":[2606752.284,256702.188],"properties":{"Pakhar-A 115.13 Ha Boundary Pillars":76},"id":76},{"type":"Point","coordinates":[2606799.713,256718.016],"properties":{"Pakhar-A 115.13 Ha Boundary Pillars":77},"id":77},{"type":"Point","coordinates":[2606847.141,256733.844],"properties":{"Pakhar-A 115.13 Ha Boundary Pillars":78},"id":78},{"type":"Point","coordinates":[2606894.57,256749.672],"properties":{"Pakhar-A 115.13 Ha Boundary Pillars":79},"id":79},{"type":"Point","coordinates":[2606941.999,256765.5],"properties":{"Pakhar-A 115.13 Ha Boundary Pillars":80},"id":80},{"type":"Point","coordinates":[2606989.427,256781.328],"properties":{"Pakhar-A 115.13 Ha Boundary Pillars":81},"id":81},{"type":"Point","coordinates":[2607036.856,256797.156],"properties":{"Pakhar-A 115.13 Ha Boundary Pillars":82},"id":82},{"type":"Point","coordinates":[2607084.284,256812.984],"properties":{"Pakhar-A 115.13 Ha Boundary Pillars":83},"id":83},{"type":"Point","coordinates":[2607131.713,256828.812],"properties":{"Pakhar-A 115.13 Ha Boundary Pillars":84},"id":84},{"type":"Point","coordinates":[2607179.142,256844.64],"properties":{"Pakhar-A 115.13 Ha Boundary Pillars":85},"id":85},{"type":"Point","coordinates":[2607226.57,256860.468],"properties":{"Pakhar-A 115.13 Ha Boundary Pillars":86},"id":86},{"type":"Point","coordinates":[2607273.999,256876.296],"properties":{"Pakhar-A 115.13 Ha Boundary Pillars":87},"id":87},{"type":"Point","coordinates":[2607328.657,256894.536],"properties":{"Pakhar-A 115.13 Ha Boundary Pillars":88},"id":88},{"type":"Point","coordinates":[2607293.116,256929.705],"properties":{"Pakhar-A 115.13 Ha Boundary Pillars":89},"id":89},{"type":"Point","coordinates":[2607257.575,256964.874],"properties":{"Pakhar-A 115.13 Ha Boundary Pillars":90},"id":90},{"type":"Point","coordinates":[2607222.034,257000.043],"properties":{"Pakhar-A 115.13 Ha Boundary Pillars":91},"id":91},{"type":"Point","coordinates":[2607215.873,257006.14],"properties":{"Pakhar-A 115.13 Ha Boundary Pillars":92},"id":92},{"type":"Point","coordinates":[2607169.322,257024.388],"properties":{"Pakhar-A 115.13 Ha Boundary Pillars":93},"id":93},{"type":"Point","coordinates":[2607122.771,257042.637],"properties":{"Pakhar-A 115.13 Ha Boundary Pillars":94},"id":94},{"type":"Point","coordinates":[2607076.22,257060.886],"properties":{"Pakhar-A 115.13 Ha Boundary Pillars":95},"id":95},{"type":"Point","coordinates":[2607029.669,257079.134],"properties":{"Pakhar-A 115.13 Ha Boundary Pillars":96},"id":96},{"type":"Point","coordinates":[2606983.118,257097.383],"properties":{"Pakhar-A 115.13 Ha Boundary Pillars":97},"id":97},{"type":"Point","coordinates":[2606936.567,257115.631],"properties":{"Pakhar-A 115.13 Ha Boundary Pillars":98},"id":98},{"type":"Point","coordinates":[2606890.016,257133.88],"properties":{"Pakhar-A 115.13 Ha Boundary Pillars":99},"id":99},{"type":"Point","coordinates":[2606843.465,257152.128],"properties":{"Pakhar-A 115.13 Ha Boundary Pillars":100},"id":100},{"type":"Point","coordinates":[2606796.914,257170.377],"properties":{"Pakhar-A 115.13 Ha Boundary Pillars":101},"id":101},{"type":"Point","coordinates":[2606750.363,257188.626],"properties":{"Pakhar-A 115.13 Ha Boundary Pillars":102},"id":102},{"type":"Point","coordinates":[2606718.448,257201.137],"properties":{"Pakhar-A 115.13 Ha Boundary Pillars":103},"id":103},{"type":"Point","coordinates":[2606687.174,257162.125],"properties":{"Pakhar-A 115.13 Ha Boundary Pillars":104},"id":104},{"type":"Point","coordinates":[2606655.899,257123.114],"properties":{"Pakhar-A 115.13 Ha Boundary Pillars":105},"id":105},{"type":"Point","coordinates":[2606624.228,257084.423],"properties":{"Pakhar-A 115.13 Ha Boundary Pillars":106},"id":106},{"type":"Point","coordinates":[2606592.216,257046.014],"properties":{"Pakhar-A 115.13 Ha Boundary Pillars":107},"id":107},{"type":"Point","coordinates":[2606560.204,257007.606],"properties":{"Pakhar-A 115.13 Ha Boundary Pillars":108},"id":108},{"type":"Point","coordinates":[2606547.337,256992.168],"properties":{"Pakhar-A 115.13 Ha Boundary Pillars":109},"id":109},{"type":"Point","coordinates":[2606504.578,256966.251],"properties":{"Pakhar-A 115.13 Ha Boundary Pillars":110},"id":110},{"type":"Point","coordinates":[2606461.819,256940.334],"properties":{"Pakhar-A 115.13 Ha Boundary Pillars":111},"id":111},{"type":"Point","coordinates":[2606419.061,256914.417],"properties":{"Pakhar-A 115.13 Ha Boundary Pillars":112},"id":112},{"type":"Point","coordinates":[2606375.282,256887.883],"properties":{"Pakhar-A 115.13 Ha Boundary Pillars":113},"id":113},{"type":"Point","coordinates":[2606325.847,256880.387],"properties":{"Pakhar-A 115.13 Ha Boundary Pillars":114},"id":114},{"type":"Point","coordinates":[2606281.657,256873.688],"properties":{"Pakhar-A 115.13 Ha Boundary Pillars":115},"id":115},{"type":"Point","coordinates":[2606251.198,256916.274],"properties":{"Pakhar-A 115.13 Ha Boundary Pillars":116},"id":116},{"type":"Point","coordinates":[2606212.897,256884.133],"properties":{"Pakhar-A 115.13 Ha Boundary Pillars":117},"id":117},{"type":"Point","coordinates":[2606174.596,256851.992],"properties":{"Pakhar-A 115.13 Ha Boundary Pillars":118},"id":118},{"type":"Point","coordinates":[2606136.363,256819.77],"properties":{"Pakhar-A 115.13 Ha Boundary Pillars":119},"id":119},{"type":"Point","coordinates":[2606098.176,256787.494],"properties":{"Pakhar-A 115.13 Ha Boundary Pillars":120},"id":120},{"type":"Point","coordinates":[2606068.425,256762.349],"properties":{"Pakhar-A 115.13 Ha Boundary Pillars":121},"id":121},{"type":"Point","coordinates":[2606048.387,256785.811],"properties":{"Pakhar-A 115.13 Ha Boundary Pillars":122},"id":122},{"type":"Point","coordinates":[2606009.449,256754.446],"properties":{"Pakhar-A 115.13 Ha Boundary Pillars":123},"id":123},{"type":"Point","coordinates":[2605970.502,256723.09],"properties":{"Pakhar-A 115.13 Ha Boundary Pillars":124},"id":124},{"type":"Point","coordinates":[2605948.689,256702.409],"properties":{"Pakhar-A 115.13 Ha Boundary Pillars":125},"id":125},{"type":"Point","coordinates":[2605962.084,256650.821],"properties":{"Pakhar-A 115.13 Ha Boundary Pillars":126},"id":126},{"type":"Point","coordinates":[2605936.236,256640.292],"properties":{"Pakhar-A 115.13 Ha Boundary Pillars":127},"id":127},{"type":"Point","coordinates":[2605937.372,256631.415],"properties":{"Pakhar-A 115.13 Ha Boundary Pillars":128},"id":128},{"type":"Point","coordinates":[2605914.468,256622.283],"properties":{"Pakhar-A 115.13 Ha Boundary Pillars":129},"id":129},{"type":"Point","coordinates":[2605929.188,256600.36],"properties":{"Pakhar-A 115.13 Ha Boundary Pillars":130},"id":130},{"type":"Point","coordinates":[2605945.132,256600.36],"properties":{"Pakhar-A 115.13 Ha Boundary Pillars":131},"id":131},{"type":"Point","coordinates":[2605959.701,256552.211],"properties":{"Pakhar-A 115.13 Ha Boundary Pillars":132},"id":132},{"type":"Point","coordinates":[2605978.078,256505.711],"properties":{"Pakhar-A 115.13 Ha Boundary Pillars":133},"id":133},{"type":"Point","coordinates":[2605988.468,256479.312],"properties":{"Pakhar-A 115.13 Ha Boundary Pillars":134},"id":134},{"type":"Point","coordinates":[2605964.741,256457.807],"properties":{"Pakhar-A 115.13 Ha Boundary Pillars":135},"id":135},{"type":"Point","coordinates":[2605958.892,256464.673],"properties":{"Pakhar-A 115.13 Ha Boundary Pillars":136},"id":136},{"type":"Point","coordinates":[2605956.128,256478.701],"properties":{"Pakhar-A 115.13 Ha Boundary Pillars":137},"id":137},{"type":"Point","coordinates":[2605929.564,256521.061],"properties":{"Pakhar-A 115.13 Ha Boundary Pillars":138},"id":138},{"type":"Point","coordinates":[2605922.597,256528.24],"properties":{"Pakhar-A 115.13 Ha Boundary Pillars":139},"id":139},{"type":"Point","coordinates":[2605917.66,256525.496],"properties":{"Pakhar-A 115.13 Ha Boundary Pillars":140},"id":140},{"type":"Point","coordinates":[2605901.062,256560.405],"properties":{"Pakhar-A 115.13 Ha Boundary Pillars":141},"id":141},{"type":"Point","coordinates":[2605901.159,256610.405],"properties":{"Pakhar-A 115.13 Ha Boundary Pillars":142},"id":142},{"type":"Point","coordinates":[2605900.667,256622.199],"properties":{"Pakhar-A 115.13 Ha Boundary Pillars":143},"id":143},{"type":"Point","coordinates":[2605889.546,256641.703],"properties":{"Pakhar-A 115.13 Ha Boundary Pillars":144},"id":144},{"type":"Point","coordinates":[2605877.096,256672.196],"properties":{"Pakhar-A 115.13 Ha Boundary Pillars":145},"id":145},{"type":"Point","coordinates":[2605864.794,256669.501],"properties":{"Pakhar-A 115.13 Ha Boundary Pillars":146},"id":146},{"type":"Point","coordinates":[2605878.327,256621.367],"properties":{"Pakhar-A 115.13 Ha Boundary Pillars":147},"id":147},{"type":"Point","coordinates":[2605885.635,256571.904],"properties":{"Pakhar-A 115.13 Ha Boundary Pillars":148},"id":148},{"type":"Point","coordinates":[2605887.785,256555.007],"properties":{"Pakhar-A 115.13 Ha Boundary Pillars":149},"id":149},{"type":"Point","coordinates":[2605894.262,256543.666],"properties":{"Pakhar-A 115.13 Ha Boundary Pillars":150},"id":150},{"type":"Point","coordinates":[2605893.271,256541.425],"properties":{"Pakhar-A 115.13 Ha Boundary Pillars":151},"id":151},{"type":"Point","coordinates":[2605916.595,256497.199],"properties":{"Pakhar-A 115.13 Ha Boundary Pillars":152},"id":152},{"type":"Point","coordinates":[2605919.863,256490.567],"properties":{"Pakhar-A 115.13 Ha Boundary Pillars":153},"id":153},{"type":"Point","coordinates":[2605919.446,256479.95],"properties":{"Pakhar-A 115.13 Ha Boundary Pillars":154},"id":154},{"type":"Point","coordinates":[2605910.487,256471.707],"properties":{"Pakhar-A 115.13 Ha Boundary Pillars":155},"id":155},{"type":"Point","coordinates":[2605889.608,256517.139],"properties":{"Pakhar-A 115.13 Ha Boundary Pillars":156},"id":156},{"type":"Point","coordinates":[2605881.604,256529.563],"properties":{"Pakhar-A 115.13 Ha Boundary Pillars":157},"id":157},{"type":"Point","coordinates":[2605868.729,256523.734],"properties":{"Pakhar-A 115.13 Ha Boundary Pillars":158},"id":158},{"type":"Point","coordinates":[2605860.559,256527.5],"properties":{"Pakhar-A 115.13 Ha Boundary Pillars":159},"id":159},{"type":"Point","coordinates":[2605855.432,256536.165],"properties":{"Pakhar-A 115.13 Ha Boundary Pillars":160},"id":160},{"type":"Point","coordinates":[2605866.947,256544.779],"properties":{"Pakhar-A 115.13 Ha Boundary Pillars":161},"id":161},{"type":"Point","coordinates":[2605878.14,256559.44],"properties":{"Pakhar-A 115.13 Ha Boundary Pillars":162},"id":162},{"type":"Point","coordinates":[2605872.717,256578.747],"properties":{"Pakhar-A 115.13 Ha Boundary Pillars":163},"id":163},{"type":"Point","coordinates":[2605858.627,256586.063],"properties":{"Pakhar-A 115.13 Ha Boundary Pillars":164},"id":164},{"type":"Point","coordinates":[2605845.544,256617.017],"properties":{"Pakhar-A 115.13 Ha Boundary Pillars":165},"id":165},{"type":"Point","coordinates":[2605846.114,256635.074],"properties":{"Pakhar-A 115.13 Ha Boundary Pillars":166},"id":166},{"type":"Point","coordinates":[2605835.605,256660.604],"properties":{"Pakhar-A 115.13 Ha Boundary Pillars":167},"id":167},{"type":"Point","coordinates":[2605827.486,256668.418],"properties":{"Pakhar-A 115.13 Ha Boundary Pillars":168},"id":168},{"type":"Point","coordinates":[2605822.563,256683.359],"properties":{"Pakhar-A 115.13 Ha Boundary Pillars":169},"id":169},{"type":"Point","coordinates":[2605772.569,256684.091],"properties":{"Pakhar-A 115.13 Ha Boundary Pillars":170},"id":170},{"type":"Point","coordinates":[2605722.717,256687.944],"properties":{"Pakhar-A 115.13 Ha Boundary Pillars":171},"id":171},{"type":"Point","coordinates":[2605701.003,256690.16],"properties":{"Pakhar-A 115.13 Ha Boundary Pillars":172},"id":172},{"type":"Point","coordinates":[2605661.482,256720.789],"properties":{"Pakhar-A 115.13 Ha Boundary Pillars":173},"id":173},{"type":"Point","coordinates":[2605625.585,256746.516],"properties":{"Pakhar-A 115.13 Ha Boundary Pillars":174},"id":174},{"type":"Point","coordinates":[2605586.322,256715.557],"properties":{"Pakhar-A 115.13 Ha Boundary Pillars":175},"id":175},{"type":"Point","coordinates":[2605546.884,256684.822],"properties":{"Pakhar-A 115.13 Ha Boundary Pillars":176},"id":176},{"type":"Point","coordinates":[2605507.184,256654.426],"properties":{"Pakhar-A 115.13 Ha Boundary Pillars":177},"id":177},{"type":"Point","coordinates":[2605469.008,256622.137],"properties":{"Pakhar-A 115.13 Ha Boundary Pillars":178},"id":178},{"type":"Point","coordinates":[2605433.127,256588.29],"properties":{"Pakhar-A 115.13 Ha Boundary Pillars":179},"id":179},{"type":"Point","coordinates":[2605414.702,256571.441],"properties":{"Pakhar-A 115.13 Ha Boundary Pillars":180},"id":180},{"type":"Point","coordinates":[2605372.432,256544.734],"properties":{"Pakhar-A 115.13 Ha Boundary Pillars":181},"id":181},{"type":"Point","coordinates":[2605338.218,256522.53],"properties":{"Pakhar-A 115.13 Ha Boundary Pillars":182},"id":182},{"type":"Point","coordinates":[2605315.762,256477.856],"properties":{"Pakhar-A 115.13 Ha Boundary Pillars":183},"id":183},{"type":"Point","coordinates":[2605293.582,256433.045],"properties":{"Pakhar-A 115.13 Ha Boundary Pillars":184},"id":184},{"type":"Point","coordinates":[2605281.99,256409.485],"properties":{"Pakhar-A 115.13 Ha Boundary Pillars":185},"id":185},{"type":"Point","coordinates":[2605250.104,256370.971],"properties":{"Pakhar-A 115.13 Ha Boundary Pillars":186},"id":186},{"type":"Point","coordinates":[2605218.128,256332.532],"properties":{"Pakhar-A 115.13 Ha Boundary Pillars":187},"id":187},{"type":"Point","coordinates":[2605212.922,256326.562],"properties":{"Pakhar-A 115.13 Ha Boundary Pillars":188},"id":188}]}}}
